{
  "data": [
    {
      "lot": "126.8625534",
      "instl_place_cd_nm": "주택단지",
      "zip": "61969",
      "pfct_nm": "현대상무힐스테이트아파트 105동앞 놀이터",
      "facility_id": "1",
      "addr": "광주광역시 서구 상무대로911번길 42(쌍촌동, 상무 힐스테이트)",
      "lat": "35.1543075"
    },
    {
      "lot": "126.92423566728849",
      "instl_place_cd_nm": "어린이집",
      "zip": "61679",
      "pfct_nm": "미화어린이집 놀이터",
      "facility_id": "2",
      "addr": "광주광역시 남구 천변좌로586번길 27-2 (방림동)",
      "lat": "35.12918706645093"
    },
    {
      "lot": "126.890041",
      "instl_place_cd_nm": "어린이집",
      "zip": "61729",
      "pfct_nm": "선양어린이집 놀이터",
      "facility_id": "3",
      "addr": "광주광역시 남구 회재로 1174-12 (주월동)",
      "lat": "35.130784"
    },
    {
      "lot": "126.7474808",
      "instl_place_cd_nm": "어린이집",
      "zip": "62203",
      "pfct_nm": "본량어린이집 놀이시설",
      "facility_id": "4",
      "addr": "광주광역시 광산구 용수길 45 (산수동)",
      "lat": "35.1920016"
    },
    {
      "lot": "126.7977714",
      "instl_place_cd_nm": "어린이집",
      "zip": "62443",
      "pfct_nm": "광산어린이집 놀이터",
      "facility_id": "5",
      "addr": "광주광역시 광산구 송도로212번길 50-9 (도산동)",
      "lat": "35.1310908"
    },
    {
      "lot": "126.8182596",
      "instl_place_cd_nm": "어린이집",
      "zip": "62318",
      "pfct_nm": "그린별어린이집 놀이터",
      "facility_id": "7",
      "addr": "광주광역시 광산구 임방울대로 138-12 (운남동)",
      "lat": "35.1725373"
    },
    {
      "lot": "126.9200931",
      "instl_place_cd_nm": "주상복합",
      "zip": "61402",
      "pfct_nm": "금호계림주상복합 어린이놀이시설",
      "facility_id": "8",
      "addr": "광주광역시 동구 중앙로 358 (계림동, 금호계림주상복합)",
      "lat": "35.1639724"
    },
    {
      "lot": "126.9345478446106",
      "instl_place_cd_nm": "주택단지",
      "zip": "61408",
      "pfct_nm": "두암타운아파트(106동) 어린이놀이시설",
      "facility_id": "9",
      "addr": "광주광역시 동구 밤실로 147 (산수동)",
      "lat": "35.15885520158323"
    },
    {
      "lot": "126.93308933402658",
      "instl_place_cd_nm": "주택단지",
      "zip": "61408",
      "pfct_nm": "두암타운아파트(111동) 어린이놀이시설",
      "facility_id": "10",
      "addr": "광주광역시 동구 밤실로 147 (산수동)",
      "lat": "35.1606909247876"
    },
    {
      "lot": "126.93815478921981",
      "instl_place_cd_nm": "주택단지",
      "zip": "61438",
      "pfct_nm": "산수 광명아파트 어린이놀이시설",
      "facility_id": "11",
      "addr": "광주광역시 동구 무등로 532 (산수동)",
      "lat": "35.1560082360062"
    },
    {
      "lot": "126.93560525193368",
      "instl_place_cd_nm": "주택단지",
      "zip": "61501",
      "pfct_nm": "대아아파트 101동놀이시설",
      "facility_id": "12",
      "addr": "광주광역시 동구 지원로 35 (소태동, 대아아파트)",
      "lat": "35.12535495514216"
    },
    {
      "lot": "126.936512",
      "instl_place_cd_nm": "주택단지",
      "zip": "61502",
      "pfct_nm": "소태동 대아102동아파트 어린이놀이시설",
      "facility_id": "13",
      "addr": "광주광역시 동구 지원로 32 (소태동)",
      "lat": "35.124116"
    },
    {
      "lot": "126.93526692176785",
      "instl_place_cd_nm": "주택단지",
      "zip": "61502",
      "pfct_nm": "소태동 진아2차하이빌아파트 어린이놀이시설",
      "facility_id": "14",
      "addr": "광주광역시 동구 학소로42번길 12 (소태동)",
      "lat": "35.12311375674659"
    },
    {
      "lot": "126.93402093714826",
      "instl_place_cd_nm": "주택단지",
      "zip": "61500",
      "pfct_nm": "소태동 진아하이빌아파트 어린이놀이시설",
      "facility_id": "15",
      "addr": "광주광역시 동구 학소로 65 (소태동)",
      "lat": "35.12580816547232"
    },
    {
      "lot": "126.9315337",
      "instl_place_cd_nm": "주택단지",
      "zip": "61509",
      "pfct_nm": "용산동 호반맨선3차 어린이놀이시설",
      "facility_id": "16",
      "addr": "광주광역시 동구 화산로 328-6 (용산동, 호반아파트)",
      "lat": "35.117674"
    },
    {
      "lot": "126.93313357084423",
      "instl_place_cd_nm": "주택단지",
      "zip": "61504",
      "pfct_nm": "한국아파트 놀이시설",
      "facility_id": "17",
      "addr": "광주광역시 동구 화산로 352 (용산동)",
      "lat": "35.11918827980269"
    },
    {
      "lot": "126.94213954404424",
      "instl_place_cd_nm": "주택단지",
      "zip": "61492",
      "pfct_nm": "운림 라인광명아파트 어린이놀이시설",
      "facility_id": "18",
      "addr": "광주광역시 동구 운림길 58 (운림동)",
      "lat": "35.135552676136356"
    },
    {
      "lot": "126.9419362",
      "instl_place_cd_nm": "주택단지",
      "zip": "61492",
      "pfct_nm": "무등스위트맨션아파트 놀이시설",
      "facility_id": "19",
      "addr": "광주광역시 동구 운림길 68 (운림동)",
      "lat": "35.1343167"
    },
    {
      "lot": "126.94129355893492",
      "instl_place_cd_nm": "주택단지",
      "zip": "61491",
      "pfct_nm": "운림2차무등파크맨션아파트 어린이놀이시설",
      "facility_id": "20",
      "addr": "광주광역시 동구 운림길 29-10 (운림동)",
      "lat": "35.135183837095596"
    },
    {
      "lot": "126.9406343",
      "instl_place_cd_nm": "주택단지",
      "zip": "61491",
      "pfct_nm": "운림 무등1차아파트 어린이놀이시설",
      "facility_id": "21",
      "addr": "광주광역시 동구 운림길 23 (운림동)",
      "lat": "35.1344132"
    },
    {
      "lot": "126.93899235302912",
      "instl_place_cd_nm": "주택단지",
      "zip": "61451",
      "pfct_nm": "지산동 진아하이빌아파트 어린이놀이시설",
      "facility_id": "22",
      "addr": "광주광역시 동구 지호로86번길 3 (지산동)",
      "lat": "35.14771163556493"
    },
    {
      "lot": "126.93395377341021",
      "instl_place_cd_nm": "주택단지",
      "zip": "61461",
      "pfct_nm": "학동 현대아파트 어린이놀이시설",
      "facility_id": "23",
      "addr": "광주광역시 동구 증심천로89번길 16 (학동)",
      "lat": "35.13425841549455"
    },
    {
      "lot": "126.92675233933879",
      "instl_place_cd_nm": "주택단지",
      "zip": "61457",
      "pfct_nm": "학1마을아파트 101동옆놀이시설(어린이놀이터2)",
      "facility_id": "24",
      "addr": "광주광역시 동구 남문로 734 (학동, 학1마을)",
      "lat": "35.136773586692826"
    },
    {
      "lot": "126.93040419738361",
      "instl_place_cd_nm": "주택단지",
      "zip": "61459",
      "pfct_nm": "학동 아남아파트 어린이놀이시설",
      "facility_id": "25",
      "addr": "광주광역시 동구 의재로 23-8 (학동)",
      "lat": "35.134312764315865"
    },
    {
      "lot": "126.92991300846829",
      "instl_place_cd_nm": "주택단지",
      "zip": "61463",
      "pfct_nm": "삼익세라믹아파트 놀이시설",
      "facility_id": "26",
      "addr": "광주광역시 동구 남문로 676 (학동)",
      "lat": "35.13132108125724"
    },
    {
      "lot": "126.93497115686075",
      "instl_place_cd_nm": "어린이집",
      "zip": "61502",
      "pfct_nm": "에델바이스어린이집",
      "facility_id": "27",
      "addr": "광주광역시 동구 학소로 32 (소태동)",
      "lat": "35.122552498728204"
    },
    {
      "lot": "126.867083",
      "instl_place_cd_nm": "어린이집",
      "zip": "61968",
      "pfct_nm": "마리아어린이집 놀이터",
      "facility_id": "28",
      "addr": "광주광역시 서구 상무대로 961",
      "lat": "35.1518887"
    },
    {
      "lot": "126.8949871",
      "instl_place_cd_nm": "어린이집",
      "zip": "61731",
      "pfct_nm": "성균관어린이집 놀이터",
      "facility_id": "29",
      "addr": "광주광역시 남구 회서로 36 (주월동)",
      "lat": "35.1298674"
    },
    {
      "lot": "126.8596621815938",
      "instl_place_cd_nm": "어린이집",
      "zip": "61757",
      "pfct_nm": "세우리교회어린이집 놀이터",
      "facility_id": "30",
      "addr": "광주광역시 남구 이장길 62-10 (이장동)",
      "lat": "35.092520516845454"
    },
    {
      "lot": "126.91353140456339",
      "instl_place_cd_nm": "어린이집",
      "zip": "61685",
      "pfct_nm": "좋은나라 어린이집 놀이터",
      "facility_id": "31",
      "addr": "광주광역시 남구 봉선로175번길 9 (봉선동, 삼익1차아파트)",
      "lat": "35.125394172866635"
    },
    {
      "lot": "126.8905111",
      "instl_place_cd_nm": "어린이집",
      "zip": "61601",
      "pfct_nm": "흰돌어린이집 놀이터",
      "facility_id": "32",
      "addr": "광주광역시 남구 군분로93번길 3-1 (월산동)",
      "lat": "35.1410788"
    },
    {
      "lot": "126.8640061",
      "instl_place_cd_nm": "어린이집",
      "zip": "61265",
      "pfct_nm": "동림북구어린이집 놀이터",
      "facility_id": "33",
      "addr": "광주광역시 북구 북문대로247번길 42 (동림동)",
      "lat": "35.1861395"
    },
    {
      "lot": "126.89432360361052",
      "instl_place_cd_nm": "어린이집",
      "zip": "61059",
      "pfct_nm": "매곡어린이집놀이터",
      "facility_id": "34",
      "addr": "광주광역시 북구 어매마을길 45 (매곡동)",
      "lat": "35.1928980793744"
    },
    {
      "lot": "126.8932344",
      "instl_place_cd_nm": "어린이집",
      "zip": "61027",
      "pfct_nm": "온누리어린이집 놀이시설",
      "facility_id": "35",
      "addr": "광주광역시 북구 지산마을길 61-1 (지야동)",
      "lat": "35.2281232"
    },
    {
      "lot": "126.898605854175",
      "instl_place_cd_nm": "어린이집",
      "zip": "61029",
      "pfct_nm": "조은어린이집놀이터",
      "facility_id": "36",
      "addr": "광주광역시 북구 모룡대길 17 (일곡동)",
      "lat": "35.21554315357083"
    },
    {
      "lot": "126.93268823825368",
      "instl_place_cd_nm": "어린이집",
      "zip": "61165",
      "pfct_nm": "문화어린이집놀이터",
      "facility_id": "37",
      "addr": "광주광역시 북구 군왕로207번길 60 (각화동)",
      "lat": "35.1804186093556"
    },
    {
      "lot": "126.8806646",
      "instl_place_cd_nm": "어린이집",
      "zip": "61072",
      "pfct_nm": "아이꿈터어린이집놀이터",
      "facility_id": "38",
      "addr": "광주광역시 북구 양산택지로34번길 9 (양산동)",
      "lat": "35.2094027"
    },
    {
      "lot": "126.8962723",
      "instl_place_cd_nm": "어린이집",
      "zip": "61059",
      "pfct_nm": "광주어린이집 놀이시설",
      "facility_id": "39",
      "addr": "광주광역시 북구 설죽로355번길 32-10 (매곡동)",
      "lat": "35.1926008"
    },
    {
      "lot": "126.8750079546832",
      "instl_place_cd_nm": "어린이집",
      "zip": "61019",
      "pfct_nm": "키즈랜드어린이집놀이터",
      "facility_id": "40",
      "addr": "광주광역시 북구 하서로 437-1 (용두동)",
      "lat": "35.21408343678932"
    },
    {
      "lot": "126.79934982821992",
      "instl_place_cd_nm": "주택단지",
      "zip": "62441",
      "pfct_nm": "송정 온세계아파트 어린이놀이시설",
      "facility_id": "41",
      "addr": "광주광역시 광산구 송정로 80 (송정동, 온세계아이조움아파트)",
      "lat": "35.13271883417052"
    },
    {
      "lot": "126.8040588",
      "instl_place_cd_nm": "주택단지",
      "zip": "62426",
      "pfct_nm": "송정명지2차아파트",
      "facility_id": "42",
      "addr": "광주광역시 광산구 송도로320번길 16-15 (송정동, 송정명지2차아파트)",
      "lat": "35.1399311"
    },
    {
      "lot": "126.7918256",
      "instl_place_cd_nm": "주택단지",
      "zip": "62437",
      "pfct_nm": "상아아파트 어린이놀이터",
      "facility_id": "43",
      "addr": "광주광역시 광산구 도산신송길 31 (송정동, 송정동 상아아파트)",
      "lat": "35.1349821"
    },
    {
      "lot": "126.79136387543907",
      "instl_place_cd_nm": "주택단지",
      "zip": "62444",
      "pfct_nm": "도산동서경아파트 놀이시설",
      "facility_id": "44",
      "addr": "광주광역시 광산구 도산로 28 (도산동, 서경아파트)",
      "lat": "35.13151667871043"
    },
    {
      "lot": "126.7917531",
      "instl_place_cd_nm": "주택단지",
      "zip": "62448",
      "pfct_nm": "무등파크맨션 어린이놀이시설",
      "facility_id": "45",
      "addr": "광주광역시 광산구 도산로 3 (도산동, 도산동 무등아파트)",
      "lat": "35.1284699"
    },
    {
      "lot": "126.7958873",
      "instl_place_cd_nm": "주택단지",
      "zip": "62445",
      "pfct_nm": "도산대주파크빌1차아파트 101동놀이터",
      "facility_id": "46",
      "addr": "광주광역시 광산구 송도로182번길 55 (도산동, 도산동 1차 대주파크빌)",
      "lat": "35.1290597"
    },
    {
      "lot": "126.79601436767054",
      "instl_place_cd_nm": "주택단지",
      "zip": "62443",
      "pfct_nm": "도산금강2차아파트 놀이시설",
      "facility_id": "47",
      "addr": "광주광역시 광산구 송도로182번길 15-12 (도산동, 금강2차아파트)",
      "lat": "35.130502675965104"
    },
    {
      "lot": "126.7932891",
      "instl_place_cd_nm": "주택단지",
      "zip": "62442",
      "pfct_nm": "카이스트2차아파트 놀이시설",
      "facility_id": "48",
      "addr": "광주광역시 광산구 송도로181번길 30 (도산동, 카이스트빌2차아파트)",
      "lat": "35.1318723"
    },
    {
      "lot": "126.78682734057911",
      "instl_place_cd_nm": "주택단지",
      "zip": "62382",
      "pfct_nm": "가천 아파트 어린이놀이시설",
      "facility_id": "49",
      "addr": "광주광역시 광산구 어등대로595번길 13 (운수동, 가천아파트)",
      "lat": "35.15164235587628"
    },
    {
      "lot": "126.802055153303",
      "instl_place_cd_nm": "주택단지",
      "zip": "62379",
      "pfct_nm": "대덕6차무지개아파트 602동옆놀이터",
      "facility_id": "50",
      "addr": "광주광역시 광산구 금봉로 36 (소촌동, 대덕무지개아파트)",
      "lat": "35.151403415596874"
    },
    {
      "lot": "126.79235038583586",
      "instl_place_cd_nm": "주택단지",
      "zip": "62383",
      "pfct_nm": "소촌동EG스위트밸리2단지아파트 놀이시설",
      "facility_id": "51",
      "addr": "광주광역시 광산구 소촌로152번길 5 (소촌동, 스위트밸리2차아파트)",
      "lat": "35.15916702183566"
    },
    {
      "lot": "126.8079816",
      "instl_place_cd_nm": "주택단지",
      "zip": "62346",
      "pfct_nm": "월곡동일신아파트 어린이놀이시설",
      "facility_id": "52",
      "addr": "광주광역시 광산구 사암로 271 (월곡동, 하남일신아파트)",
      "lat": "35.1682503"
    },
    {
      "lot": "126.8050226",
      "instl_place_cd_nm": "주택단지",
      "zip": "62334",
      "pfct_nm": "대덕7차아파트 어린이놀이터",
      "facility_id": "53",
      "addr": "광주광역시 광산구 산정공원로71번길 18-7 (산정동, 산정동 대덕훼미리)",
      "lat": "35.1747028"
    },
    {
      "lot": "126.817358",
      "instl_place_cd_nm": "주택단지",
      "zip": "62235",
      "pfct_nm": "도천중흥1단지-1",
      "facility_id": "54",
      "addr": "광주광역시 광산구 비아로62번길 7 (도천동, 중흥아파트)",
      "lat": "35.2202548"
    },
    {
      "lot": "126.817358",
      "instl_place_cd_nm": "주택단지",
      "zip": "62235",
      "pfct_nm": "도천중흥1단지-2",
      "facility_id": "55",
      "addr": "광주광역시 광산구 비아로62번길 7 (도천동, 중흥아파트)",
      "lat": "35.2202548"
    },
    {
      "lot": "126.84129823311174",
      "instl_place_cd_nm": "주택단지",
      "zip": "62259",
      "pfct_nm": "첨단동아1차아파트 놀이시설",
      "facility_id": "56",
      "addr": "광주광역시 광산구 첨단중앙로181번길 7 (월계동, 동아아파트)",
      "lat": "35.2201669261956"
    },
    {
      "lot": "126.83683020128757",
      "instl_place_cd_nm": "주택단지",
      "zip": "62261",
      "pfct_nm": "첨단두산1차-1",
      "facility_id": "57",
      "addr": "광주광역시 광산구 월계로 117-21 (월계동, 첨단두산1차아파트)",
      "lat": "35.21554832916442"
    },
    {
      "lot": "126.83636744763557",
      "instl_place_cd_nm": "주택단지",
      "zip": "62261",
      "pfct_nm": "첨단두산1차-2",
      "facility_id": "58",
      "addr": "광주광역시 광산구 월계로 117-21 (월계동, 첨단두산1차아파트)",
      "lat": "35.2155916454369"
    },
    {
      "lot": "126.849142000649",
      "instl_place_cd_nm": "주택단지",
      "zip": "62280",
      "pfct_nm": "첨단 3-5 호반리젠시빌329동놀이터",
      "facility_id": "59",
      "addr": "광주광역시 광산구 첨단중앙로68번길 99 (산월동, 호반리젠시빌)",
      "lat": "35.212771236105404"
    },
    {
      "lot": "126.83613118284876",
      "instl_place_cd_nm": "주택단지",
      "zip": "62300",
      "pfct_nm": "신가우미이노스빌-1",
      "facility_id": "60",
      "addr": "광주광역시 광산구 수등로258번길 10 (신가동, 우미이노스빌)",
      "lat": "35.18421750069666"
    },
    {
      "lot": "126.83613118284876",
      "instl_place_cd_nm": "주택단지",
      "zip": "62300",
      "pfct_nm": "신가우미이노스빌-2",
      "facility_id": "61",
      "addr": "광주광역시 광산구 수등로258번길 10 (신가동, 우미이노스빌)",
      "lat": "35.18421750069666"
    },
    {
      "lot": "126.83968003201305",
      "instl_place_cd_nm": "주택단지",
      "zip": "62299",
      "pfct_nm": "신가1차호반리젠시빌-1",
      "facility_id": "62",
      "addr": "광주광역시 광산구 수등로 280 (신가동, 신가1차호반리젠시빌)",
      "lat": "35.183571021283676"
    },
    {
      "lot": "126.82197941001976",
      "instl_place_cd_nm": "주택단지",
      "zip": "62317",
      "pfct_nm": "운남동남양아파트 어린이놀이터",
      "facility_id": "63",
      "addr": "광주광역시 광산구 목련로219번길 45 (운남동, 남양아파트)",
      "lat": "35.17409333397503"
    },
    {
      "lot": "126.8393036",
      "instl_place_cd_nm": "주택단지",
      "zip": "62295",
      "pfct_nm": "신가부영아파트 102동앞놀이시설",
      "facility_id": "64",
      "addr": "광주광역시 광산구 수등로 287 (신창동, 신가부영아파트)",
      "lat": "35.1870303"
    },
    {
      "lot": "126.8393036",
      "instl_place_cd_nm": "주택단지",
      "zip": "62295",
      "pfct_nm": "신가부영아파트 104동앞놀이시설",
      "facility_id": "65",
      "addr": "광주광역시 광산구 수등로 287 (신창동, 신가부영아파트)",
      "lat": "35.1870303"
    },
    {
      "lot": "126.84049529909193",
      "instl_place_cd_nm": "주택단지",
      "zip": "62295",
      "pfct_nm": "신가부영아파트 107동뒤놀이시설",
      "facility_id": "66",
      "addr": "광주광역시 광산구 수등로 287 (신창동, 신가부영아파트)",
      "lat": "35.186337003330635"
    },
    {
      "lot": "126.8364257",
      "instl_place_cd_nm": "주택단지",
      "zip": "62249",
      "pfct_nm": "신창5차호반베르디움아파트 505동옆놀이시설",
      "facility_id": "67",
      "addr": "광주광역시 광산구 왕버들로251번길 27 (신창동, 신창5차호반베르디움)",
      "lat": "35.1981906"
    },
    {
      "lot": "126.83786165397152",
      "instl_place_cd_nm": "주택단지",
      "zip": "62301",
      "pfct_nm": "신가1차 중흥파크맨션아파트 놀이시설",
      "facility_id": "68",
      "addr": "광주광역시 광산구 목련로382번길 113 (신창동, 중흥아파트)",
      "lat": "35.180461742240745"
    },
    {
      "lot": "126.81170144989687",
      "instl_place_cd_nm": "주택단지",
      "zip": "62226",
      "pfct_nm": "수완현진에버빌2단지-3 (203동앞)",
      "facility_id": "69",
      "addr": "광주광역시 광산구 풍영로169번길 46 (장덕동, 광주 수완 현진에버빌 2단지)",
      "lat": "35.187261235400065"
    },
    {
      "lot": "126.81451244403172",
      "instl_place_cd_nm": "도시공원",
      "zip": "62352",
      "pfct_nm": "월곡근린공원 놀이터",
      "facility_id": "70",
      "addr": "광주광역시 광산구 월곡반월로16번길 25-14 (월곡동)",
      "lat": "35.167507298361485"
    },
    {
      "lot": "126.80647179366507",
      "instl_place_cd_nm": "도시공원",
      "zip": "62377",
      "pfct_nm": "다정한 어린이공원 놀이터",
      "facility_id": "71",
      "addr": "광산구 신촌동 884-1",
      "lat": "35.15021568598959"
    },
    {
      "lot": "126.80438739665406",
      "instl_place_cd_nm": "도시공원",
      "zip": "62344",
      "pfct_nm": "산정중앙 어린이공원 놀이터",
      "facility_id": "72",
      "addr": "광산구 산정동 969-1",
      "lat": "35.16824625852432"
    },
    {
      "lot": "126.80714467582912",
      "instl_place_cd_nm": "도시공원",
      "zip": "62345",
      "pfct_nm": "다모아 어린이공원 놀이터",
      "facility_id": "73",
      "addr": "광산구 월곡동 520-1",
      "lat": "35.17084433272544"
    },
    {
      "lot": "126.80710177269452",
      "instl_place_cd_nm": "도시공원",
      "zip": "62333",
      "pfct_nm": "햇살 어린이공원 놀이터",
      "facility_id": "74",
      "addr": "광산구 월곡동 503",
      "lat": "35.173904368249886"
    },
    {
      "lot": "126.81032541665023",
      "instl_place_cd_nm": "도시공원",
      "zip": "62348",
      "pfct_nm": "월곡하늘 어린이공원 놀이터",
      "facility_id": "75",
      "addr": "광산구 월곡동 608-1",
      "lat": "35.167252941910995"
    },
    {
      "lot": "126.81453666759076",
      "instl_place_cd_nm": "도시공원",
      "zip": "62351",
      "pfct_nm": "월곡솔밭 어린이공원 어린이공원",
      "facility_id": "76",
      "addr": "광산구 월곡동 575-10",
      "lat": "35.16892471903855"
    },
    {
      "lot": "126.8189674007401",
      "instl_place_cd_nm": "도시공원",
      "zip": "",
      "pfct_nm": "웃음꽃 어린이공원 놀이터",
      "facility_id": "77",
      "addr": "광산구 운남동 769-7",
      "lat": "35.17812976032691"
    },
    {
      "lot": "126.8469513244188",
      "instl_place_cd_nm": "도시공원",
      "zip": "",
      "pfct_nm": "월봉 어린이공원 놀이터",
      "facility_id": "78",
      "addr": "광산구 산월동 886-3",
      "lat": "35.208537207133695"
    },
    {
      "lot": "126.8091943",
      "instl_place_cd_nm": "어린이집",
      "zip": "62366",
      "pfct_nm": "빛고을어린이집 놀이터",
      "facility_id": "79",
      "addr": "광주광역시 광산구 사암로158번길 24-13 (우산동)",
      "lat": "35.1577102"
    },
    {
      "lot": "126.8061443",
      "instl_place_cd_nm": "어린이집",
      "zip": "62332",
      "pfct_nm": "아이세상어린이집놀이터",
      "facility_id": "80",
      "addr": "광주광역시 광산구 산정공원로 99-5 (산정동)",
      "lat": "35.1762765"
    },
    {
      "lot": "126.8209402",
      "instl_place_cd_nm": "어린이집",
      "zip": "62319",
      "pfct_nm": "운남어린이집 놀이시설",
      "facility_id": "81",
      "addr": "광주광역시 광산구 목련로253번길 86 (운남동)",
      "lat": "35.1752479"
    },
    {
      "lot": "126.8426881",
      "instl_place_cd_nm": "어린이집",
      "zip": "62294",
      "pfct_nm": "연세어린이집 놀이터",
      "facility_id": "82",
      "addr": "광주광역시 광산구 수등로258번길 82 (신창동)",
      "lat": "35.1844353"
    },
    {
      "lot": "126.8276285",
      "instl_place_cd_nm": "어린이집",
      "zip": "62245",
      "pfct_nm": "수완생태어린이집 놀이터",
      "facility_id": "83",
      "addr": "광주광역시 광산구 상완길 115-47 (수완동)",
      "lat": "35.2055706"
    },
    {
      "lot": "126.83907094289391",
      "instl_place_cd_nm": "어린이집",
      "zip": "62293",
      "pfct_nm": "아이원어린이집 놀이터",
      "facility_id": "84",
      "addr": "광주광역시 광산구 신창로36번길 32 (신창동)",
      "lat": "35.189018901578436"
    },
    {
      "lot": "126.9408578006899",
      "instl_place_cd_nm": "주택단지",
      "zip": "61491",
      "pfct_nm": "운림 남해오네뜨빌 어린이놀이시설",
      "facility_id": "87",
      "addr": "광주광역시 동구 운림길 27 (운림동)",
      "lat": "35.13463830047998"
    },
    {
      "lot": "126.92773532811303",
      "instl_place_cd_nm": "주택단지",
      "zip": "61457",
      "pfct_nm": "학1마을아파트 104동옆놀이시설(어린이놀이터1)",
      "facility_id": "88",
      "addr": "광주광역시 동구 남문로 734 (학동, 학1마을)",
      "lat": "35.13570944185969"
    },
    {
      "lot": "126.9315024",
      "instl_place_cd_nm": "주택단지",
      "zip": "61463",
      "pfct_nm": "학동평화맨션 어린이놀이시설1(유치원앞)",
      "facility_id": "89",
      "addr": "광주광역시 동구 학소로 125 (학동)",
      "lat": "35.131507"
    },
    {
      "lot": "126.88402568901085",
      "instl_place_cd_nm": "어린이집",
      "zip": "61741",
      "pfct_nm": "꿈나무어린이집 놀이터",
      "facility_id": "90",
      "addr": "광주광역시 남구 원효천길 45 (송하동)",
      "lat": "35.103192197759775"
    },
    {
      "lot": "126.9119218",
      "instl_place_cd_nm": "어린이집",
      "zip": "61684",
      "pfct_nm": "봉선어린이집 놀이터",
      "facility_id": "91",
      "addr": "광주광역시 남구 봉선중앙로 35 (봉선동)",
      "lat": "35.1241955"
    },
    {
      "lot": "126.88712982040674",
      "instl_place_cd_nm": "어린이집",
      "zip": "61729",
      "pfct_nm": "신기한나라어린이집 놀이터",
      "facility_id": "92",
      "addr": "광주광역시 남구 회재로 1140-9 (주월동)",
      "lat": "35.12963647709969"
    },
    {
      "lot": "126.9050032",
      "instl_place_cd_nm": "어린이집",
      "zip": "61648",
      "pfct_nm": "엔젤어린이집 놀이터",
      "facility_id": "93",
      "addr": "광주광역시 남구 독립로54번길 30 (백운동)",
      "lat": "35.13829"
    },
    {
      "lot": "126.9017098",
      "instl_place_cd_nm": "어린이집",
      "zip": "61049",
      "pfct_nm": "썬키즈어린이집 놀이터",
      "facility_id": "94",
      "addr": "광주광역시 북구 송해로40번길 8-31 (삼각동)",
      "lat": "35.2007366"
    },
    {
      "lot": "126.7992375882354",
      "instl_place_cd_nm": "주택단지",
      "zip": "62434",
      "pfct_nm": "송정대덕9차아파트 어린이놀이시설",
      "facility_id": "95",
      "addr": "광주광역시 광산구 송정로65번길 28 (송정동, 송정동 대덕9차 아파트)",
      "lat": "35.134862762351204"
    },
    {
      "lot": "126.8042105",
      "instl_place_cd_nm": "주택단지",
      "zip": "62432",
      "pfct_nm": "송정라인1차아파트 놀이터",
      "facility_id": "96",
      "addr": "광주광역시 광산구 용보로27번길 46 (송정동, 송정동라인1차아파트)",
      "lat": "35.1373862"
    },
    {
      "lot": "126.79058838885068",
      "instl_place_cd_nm": "주택단지",
      "zip": "62448",
      "pfct_nm": "도산호반1차아파트 놀이시설",
      "facility_id": "97",
      "addr": "광주광역시 광산구 도산로9번길 35 (도산동, 도산동 호반아파트)",
      "lat": "35.12800002907459"
    },
    {
      "lot": "126.79515940500028",
      "instl_place_cd_nm": "주택단지",
      "zip": "62443",
      "pfct_nm": "카이스트1차아파트 놀이시설",
      "facility_id": "98",
      "addr": "광주광역시 광산구 송도로182번길 15-11 (도산동, 카이스트빌)",
      "lat": "35.131265138295994"
    },
    {
      "lot": "126.80313288564605",
      "instl_place_cd_nm": "주택단지",
      "zip": "62425",
      "pfct_nm": "신촌명지1차아파트 놀이시설",
      "facility_id": "99",
      "addr": "광주광역시 광산구 송도로320번길 11 (신촌동, 신촌동명지아파트)",
      "lat": "35.14136514929322"
    },
    {
      "lot": "126.7942689025685",
      "instl_place_cd_nm": "주택단지",
      "zip": "62383",
      "pfct_nm": "소촌등 EG스위트밸리3차",
      "facility_id": "100",
      "addr": "광주광역시 광산구 소촌로152번길 11 (소촌동, 스위트밸리3차아파트)",
      "lat": "35.158410900830276"
    },
    {
      "lot": "126.7970469050886",
      "instl_place_cd_nm": "주택단지",
      "zip": "62387",
      "pfct_nm": "소촌모아2차 드림타운",
      "facility_id": "101",
      "addr": "광주광역시 광산구 소촌로86번길 20-5 (소촌동, 모아드림2차아파트)",
      "lat": "35.15157371209876"
    },
    {
      "lot": "126.7936747",
      "instl_place_cd_nm": "주택단지",
      "zip": "62389",
      "pfct_nm": "송광파크맨션",
      "facility_id": "102",
      "addr": "광주광역시 광산구 어등대로647번길 32 (소촌동, 송광파크맨션)",
      "lat": "35.1450118"
    },
    {
      "lot": "126.79031238357608",
      "instl_place_cd_nm": "주택단지",
      "zip": "62389",
      "pfct_nm": "소촌서라1차아파트 관리동옆놀이터",
      "facility_id": "103",
      "addr": "광주광역시 광산구 어등대로665번길 27 (소촌동, 소촌동 서라아파트)",
      "lat": "35.14632309411598"
    },
    {
      "lot": "126.80563183154399",
      "instl_place_cd_nm": "주택단지",
      "zip": "62357",
      "pfct_nm": "우산제일파크-1",
      "facility_id": "104",
      "addr": "광주광역시 광산구 월곡산정로 20 (우산동, 하남제일파크맨션)",
      "lat": "35.16596557542372"
    },
    {
      "lot": "126.80708774879777",
      "instl_place_cd_nm": "주택단지",
      "zip": "62357",
      "pfct_nm": "동산아파트",
      "facility_id": "105",
      "addr": "광주광역시 광산구 월곡산정로 20-49 (우산동, 동산아파트)",
      "lat": "35.16531779880011"
    },
    {
      "lot": "126.80849578869561",
      "instl_place_cd_nm": "주택단지",
      "zip": "62328",
      "pfct_nm": "영천마을 주공9단지-1",
      "facility_id": "106",
      "addr": "광주광역시 광산구 풍영로 63 (월곡동, 영천마을 주공아파트)",
      "lat": "35.17805844913108"
    },
    {
      "lot": "126.80852576232793",
      "instl_place_cd_nm": "주택단지",
      "zip": "62328",
      "pfct_nm": "영천마을 주공9단지-2",
      "facility_id": "107",
      "addr": "광주광역시 광산구 풍영로 63 (월곡동, 영천마을 주공아파트)",
      "lat": "35.17698025021159"
    },
    {
      "lot": "126.8101635270279",
      "instl_place_cd_nm": "주택단지",
      "zip": "62328",
      "pfct_nm": "영천마을 주공9단지-4",
      "facility_id": "108",
      "addr": "광주광역시 광산구 풍영로 63 (월곡동, 영천마을 주공아파트)",
      "lat": "35.177871789766606"
    },
    {
      "lot": "126.80939235965461",
      "instl_place_cd_nm": "주택단지",
      "zip": "62328",
      "pfct_nm": "영천마을 주공9단지-7",
      "facility_id": "109",
      "addr": "광주광역시 광산구 풍영로 63 (월곡동, 영천마을 주공아파트)",
      "lat": "35.17785255159615"
    },
    {
      "lot": "126.83088291472203",
      "instl_place_cd_nm": "주택단지",
      "zip": "62256",
      "pfct_nm": "첨단성원",
      "facility_id": "110",
      "addr": "광주광역시 광산구 첨단중앙로181번길 92 (월계동, 성원아파트)",
      "lat": "35.21847462481786"
    },
    {
      "lot": "126.83815561323878",
      "instl_place_cd_nm": "주택단지",
      "zip": "62254",
      "pfct_nm": "첨단일신",
      "facility_id": "111",
      "addr": "광주광역시 광산구 첨단중앙로181번길 42-14 (월계동, 일신아파트)",
      "lat": "35.221834205450676"
    },
    {
      "lot": "126.84149014386408",
      "instl_place_cd_nm": "주택단지",
      "zip": "62259",
      "pfct_nm": "첨단대주",
      "facility_id": "112",
      "addr": "광주광역시 광산구 첨단중앙로 153 (월계동, 첨단단지대주APT)",
      "lat": "35.21855883188189"
    },
    {
      "lot": "126.8389073255779",
      "instl_place_cd_nm": "주택단지",
      "zip": "62259",
      "pfct_nm": "기산아파트 106동옆놀이터",
      "facility_id": "113",
      "addr": "광주광역시 광산구 임방울대로 727-6 (월계동, 기산아파트)",
      "lat": "35.2194060714332"
    },
    {
      "lot": "126.83435809826429",
      "instl_place_cd_nm": "주택단지",
      "zip": "62258",
      "pfct_nm": "첨단우미1차",
      "facility_id": "114",
      "addr": "광주광역시 광산구 첨단중앙로181번길 65 (월계동, 첨단지구 우미아파트)",
      "lat": "35.21834986037712"
    },
    {
      "lot": "126.83706287396285",
      "instl_place_cd_nm": "주택단지",
      "zip": "62258",
      "pfct_nm": "첨단삼능",
      "facility_id": "115",
      "addr": "광주광역시 광산구 임방울대로 727-19 (월계동, 첨단삼능아파트)",
      "lat": "35.21900024917306"
    },
    {
      "lot": "126.83141293456147",
      "instl_place_cd_nm": "주택단지",
      "zip": "62263",
      "pfct_nm": "첨단호반2차아파트 207동옆놀이터",
      "facility_id": "116",
      "addr": "광주광역시 광산구 월계로 59 (월계동, 첨단 호반2차아파트)",
      "lat": "35.21180424660635"
    },
    {
      "lot": "126.83181693371561",
      "instl_place_cd_nm": "주택단지",
      "zip": "62263",
      "pfct_nm": "첨단호반2차아파트 215동옆놀이터",
      "facility_id": "117",
      "addr": "광주광역시 광산구 월계로 59 (월계동, 첨단 호반2차아파트)",
      "lat": "35.2136142695264"
    },
    {
      "lot": "126.83636536681281",
      "instl_place_cd_nm": "주택단지",
      "zip": "62261",
      "pfct_nm": "첨단서라아파트 놀이터",
      "facility_id": "118",
      "addr": "광주광역시 광산구 첨단내촌로 102 (월계동, 첨단서라아파트)",
      "lat": "35.21560234615712"
    },
    {
      "lot": "126.84764437102487",
      "instl_place_cd_nm": "주택단지",
      "zip": "62280",
      "pfct_nm": "첨단 3-5 호반리젠시빌326동놀이터",
      "facility_id": "119",
      "addr": "광주광역시 광산구 첨단중앙로68번길 99 (산월동, 호반리젠시빌)",
      "lat": "35.21232262886578"
    },
    {
      "lot": "126.84396618944356",
      "instl_place_cd_nm": "주택단지",
      "zip": "62285",
      "pfct_nm": "첨단부영6차 아파트 놀이터(1208동 옆)",
      "facility_id": "120",
      "addr": "광주광역시 광산구 산월로 64 (산월동, 부영사랑으로)",
      "lat": "35.2081908835971"
    },
    {
      "lot": "126.84397359442575",
      "instl_place_cd_nm": "주택단지",
      "zip": "62285",
      "pfct_nm": "첨단부영6차 아파트 놀이터(1204동 옆)",
      "facility_id": "121",
      "addr": "광주광역시 광산구 산월로 64 (산월동, 부영사랑으로)",
      "lat": "35.207190393085405"
    },
    {
      "lot": "126.83783144537118",
      "instl_place_cd_nm": "주택단지",
      "zip": "62301",
      "pfct_nm": "신가중흥2차-1",
      "facility_id": "122",
      "addr": "광주광역시 광산구 목련로382번길 79 (신가동, 중흥아파트)",
      "lat": "35.180470715352826"
    },
    {
      "lot": "126.83691098124741",
      "instl_place_cd_nm": "주택단지",
      "zip": "62301",
      "pfct_nm": "신가중흥2차-2",
      "facility_id": "123",
      "addr": "광주광역시 광산구 목련로382번길 79 (신가동, 중흥아파트)",
      "lat": "35.18166715527983"
    },
    {
      "lot": "126.81600265319602",
      "instl_place_cd_nm": "주택단지",
      "zip": "62325",
      "pfct_nm": "운남주공7단지아파트 701동옆놀이터",
      "facility_id": "124",
      "addr": "광주광역시 광산구 목련로153번길 56 (운남동)운남주공7단지아파트",
      "lat": "35.17476323658682"
    },
    {
      "lot": "126.81622585423216",
      "instl_place_cd_nm": "주택단지",
      "zip": "62325",
      "pfct_nm": "운남주공7단지아파트 707동앞놀이시설",
      "facility_id": "125",
      "addr": "광주광역시 광산구 목련로153번길 56 (운남동)",
      "lat": "35.172532719235925"
    },
    {
      "lot": "126.83312691632545",
      "instl_place_cd_nm": "주택단지",
      "zip": "62250",
      "pfct_nm": "신창부영2차-1",
      "facility_id": "126",
      "addr": "광주광역시 광산구 신창로71번길 33 (신창동, 신창2차부영아파트)",
      "lat": "35.193351438837404"
    },
    {
      "lot": "126.8349180705447",
      "instl_place_cd_nm": "주택단지",
      "zip": "62250",
      "pfct_nm": "신창부영2차-2",
      "facility_id": "127",
      "addr": "광주광역시 광산구 신창로71번길 33 (신창동, 신창2차부영아파트)",
      "lat": "35.19131120118315"
    },
    {
      "lot": "126.83374196863794",
      "instl_place_cd_nm": "주택단지",
      "zip": "62250",
      "pfct_nm": "신창부영2차-3",
      "facility_id": "128",
      "addr": "광주광역시 광산구 신창로71번길 33 (신창동, 신창2차부영아파트)",
      "lat": "35.1932722896604"
    },
    {
      "lot": "126.81186566269594",
      "instl_place_cd_nm": "주택단지",
      "zip": "62226",
      "pfct_nm": "수완현진에버빌2단지-1 (207동앞)",
      "facility_id": "129",
      "addr": "광주광역시 광산구 풍영로169번길 46 (장덕동, 광주 수완 현진에버빌 2단지)",
      "lat": "35.188361705636794"
    },
    {
      "lot": "126.81096216732278",
      "instl_place_cd_nm": "주택단지",
      "zip": "62226",
      "pfct_nm": "수완현진에버빌2단지-2 (210동앞)",
      "facility_id": "130",
      "addr": "광주광역시 광산구 풍영로169번길 46 (장덕동, 광주 수완 현진에버빌 2단지)",
      "lat": "35.18736204941936"
    },
    {
      "lot": "126.7996067",
      "instl_place_cd_nm": "도시공원",
      "zip": "62380",
      "pfct_nm": "송정근린공원 놀이터",
      "facility_id": "131",
      "addr": "광주광역시 광산구 송정공원로 8-23 (소촌동)송정근린공원",
      "lat": "35.1457683"
    },
    {
      "lot": "126.8055393370546",
      "instl_place_cd_nm": "도시공원",
      "zip": "62344",
      "pfct_nm": "산정근린공원 놀이터",
      "facility_id": "132",
      "addr": "광주광역시 광산구 산정공원로 27-5 (월곡동)",
      "lat": "35.16908524806428"
    },
    {
      "lot": "126.8320804",
      "instl_place_cd_nm": "도시공원",
      "zip": "62304",
      "pfct_nm": "신가 어린이공원 놀이터",
      "facility_id": "133",
      "addr": "광산구 신가동 963-5",
      "lat": "35.1846965"
    },
    {
      "lot": "126.80987581743562",
      "instl_place_cd_nm": "도시공원",
      "zip": "62328",
      "pfct_nm": "맑은샘 어린이공원 놀이터",
      "facility_id": "134",
      "addr": "광주광역시 광산구 풍영로 63 (월곡동)",
      "lat": "35.17885043562198"
    },
    {
      "lot": "126.8160691",
      "instl_place_cd_nm": "도시공원",
      "zip": "62323",
      "pfct_nm": "목련무지개 어린이공원 놀이터",
      "facility_id": "135",
      "addr": "광산구 운남동 782-2",
      "lat": "35.1778269"
    },
    {
      "lot": "126.8106541",
      "instl_place_cd_nm": "도시공원",
      "zip": "",
      "pfct_nm": "기쁨 어린이공원 놀이터",
      "facility_id": "136",
      "addr": "광산구 월곡동 702-1",
      "lat": "35.1703165"
    },
    {
      "lot": "126.8508787",
      "instl_place_cd_nm": "도시공원",
      "zip": "",
      "pfct_nm": "첨단강변 어린이공원 놀이터",
      "facility_id": "137",
      "addr": "광산구 산월동 883-3",
      "lat": "35.2116723"
    },
    {
      "lot": "126.8408707",
      "instl_place_cd_nm": "어린이집",
      "zip": "62293",
      "pfct_nm": "루덴스스포츠어린이집 놀이터",
      "facility_id": "138",
      "addr": "광주광역시 광산구 신가매결길 76 (신창동)",
      "lat": "35.1881754"
    },
    {
      "lot": "126.836653",
      "instl_place_cd_nm": "어린이집",
      "zip": "62301",
      "pfct_nm": "낙원어린이집 놀이터",
      "facility_id": "139",
      "addr": "광주광역시 광산구 목련로382번안길 53 (신가동)",
      "lat": "35.179765"
    },
    {
      "lot": "126.717286",
      "instl_place_cd_nm": "어린이집",
      "zip": "62458",
      "pfct_nm": "평동어린이집 놀이시설",
      "facility_id": "140",
      "addr": "광주광역시 광산구 평지안길 9-11 (지정동)",
      "lat": "35.131048"
    },
    {
      "lot": "126.8274654",
      "instl_place_cd_nm": "어린이집",
      "zip": "62306",
      "pfct_nm": "민족사관어린이집 놀이터",
      "facility_id": "141",
      "addr": "광주광역시 광산구 수완로49번길 22 (수완동)",
      "lat": "35.1897683"
    },
    {
      "lot": "126.8051826",
      "instl_place_cd_nm": "어린이집",
      "zip": "62368",
      "pfct_nm": "초콜릿어린이집 놀이터",
      "facility_id": "142",
      "addr": "광주광역시 광산구 금봉로59번길 20 (소촌동)",
      "lat": "35.1526581"
    },
    {
      "lot": "126.8278467",
      "instl_place_cd_nm": "어린이집",
      "zip": "62253",
      "pfct_nm": "숲사랑어린이집 놀이터",
      "facility_id": "143",
      "addr": "광주광역시 광산구 비아동원촌길 57-6 (비아동)",
      "lat": "35.2216632"
    },
    {
      "lot": "126.7871612",
      "instl_place_cd_nm": "어린이집",
      "zip": "62450",
      "pfct_nm": "세화어린이집 놀이시설",
      "facility_id": "144",
      "addr": "광주광역시 광산구 서도산길 70-8 (도산동)",
      "lat": "35.1287231"
    },
    {
      "lot": "126.8266867",
      "instl_place_cd_nm": "어린이집",
      "zip": "62315",
      "pfct_nm": "호정어린이집 놀이터",
      "facility_id": "145",
      "addr": "광주광역시 광산구 목련로273번길 16 (운남동)",
      "lat": "35.1751578"
    },
    {
      "lot": "126.835372",
      "instl_place_cd_nm": "어린이집",
      "zip": "62270",
      "pfct_nm": "지혜숲어린이집 놀이터",
      "facility_id": "146",
      "addr": "광주광역시 광산구 첨단내촌로11번길 26 (월계동)",
      "lat": "35.2091203"
    },
    {
      "lot": "126.8456819",
      "instl_place_cd_nm": "어린이집",
      "zip": "62272",
      "pfct_nm": "컴이조아어린이집놀이터",
      "facility_id": "147",
      "addr": "광주광역시 광산구 첨단봉산길 16-9 (산월동)",
      "lat": "35.2056432"
    },
    {
      "lot": "126.8305698",
      "instl_place_cd_nm": "어린이집",
      "zip": "62303",
      "pfct_nm": "미리내어린이집 실내놀이시설",
      "facility_id": "148",
      "addr": "광주광역시 광산구 목련로381번길 37 (신가동)",
      "lat": "35.1823902"
    },
    {
      "lot": "126.93696169378593",
      "instl_place_cd_nm": "주택단지",
      "zip": "61501",
      "pfct_nm": "지원동모아미래도아파트 103동뒤놀이시설",
      "facility_id": "149",
      "addr": "광주광역시 동구 학소로76번길 14 (소태동)",
      "lat": "35.12694995666432"
    },
    {
      "lot": "126.93687759609344",
      "instl_place_cd_nm": "주택단지",
      "zip": "61501",
      "pfct_nm": "지원동모아미래도아파트 104동뒤놀이시설",
      "facility_id": "150",
      "addr": "광주광역시 동구 학소로76번길 14 (소태동)",
      "lat": "35.12752227925094"
    },
    {
      "lot": "126.9408851",
      "instl_place_cd_nm": "주택단지",
      "zip": "61494",
      "pfct_nm": "소태동 한국아델리움 어린이놀이시설",
      "facility_id": "151",
      "addr": "광주광역시 동구 의재로 120 (소태동)",
      "lat": "35.131829"
    },
    {
      "lot": "126.9315024",
      "instl_place_cd_nm": "주택단지",
      "zip": "61463",
      "pfct_nm": "학동평화맨션 어린이놀이시설3(3동앞)",
      "facility_id": "152",
      "addr": "광주광역시 동구 학소로 125 (학동)",
      "lat": "35.131507"
    },
    {
      "lot": "126.90324435664812",
      "instl_place_cd_nm": "주택단지",
      "zip": "61647",
      "pfct_nm": "벽산아파트 어린이놀이시설",
      "facility_id": "153",
      "addr": "광주광역시 남구 독립로54번길 8 (백운동, 벽산아파트)",
      "lat": "35.13839194462006"
    },
    {
      "lot": "126.90768",
      "instl_place_cd_nm": "어린이집",
      "zip": "61636",
      "pfct_nm": "선아어린이집 놀이터",
      "facility_id": "154",
      "addr": "광주광역시 남구 서오층석탑2길 11 (서동)",
      "lat": "35.1468941"
    },
    {
      "lot": "126.8956033",
      "instl_place_cd_nm": "어린이집",
      "zip": "61736",
      "pfct_nm": "포도원어린이집 놀이터",
      "facility_id": "155",
      "addr": "광주광역시 남구 광복마을3길 23 (진월동)",
      "lat": "35.1193359"
    },
    {
      "lot": "126.7987939332818",
      "instl_place_cd_nm": "주택단지",
      "zip": "62441",
      "pfct_nm": "송정동 대화아파트",
      "facility_id": "156",
      "addr": "광주광역시 광산구 송도로212번길 31-8 (송정동, 대화아파트)",
      "lat": "35.13233821388096"
    },
    {
      "lot": "126.79984835464577",
      "instl_place_cd_nm": "주택단지",
      "zip": "62434",
      "pfct_nm": "송정금강아파트놀이터",
      "facility_id": "157",
      "addr": "광주광역시 광산구 송정로 77 (송정동, 금강아파트)",
      "lat": "35.13468688038815"
    },
    {
      "lot": "126.7883594",
      "instl_place_cd_nm": "주택단지",
      "zip": "62438",
      "pfct_nm": "송정라인2차-2",
      "facility_id": "158",
      "addr": "광주광역시 광산구 상무대로 137-2 (송정동, 송정 라인2차 아파트)",
      "lat": "35.1335011"
    },
    {
      "lot": "126.78806903765609",
      "instl_place_cd_nm": "주택단지",
      "zip": "62393",
      "pfct_nm": "극동마이다스빌",
      "facility_id": "159",
      "addr": "광주광역시 광산구 평동로1119번길 25 (송정동, 마이다스빌)",
      "lat": "35.13595580065509"
    },
    {
      "lot": "126.7918459211797",
      "instl_place_cd_nm": "주택단지",
      "zip": "62444",
      "pfct_nm": "도산동 우미아파트",
      "facility_id": "160",
      "addr": "광주광역시 광산구 도산로 26 (도산동, 우미아파트)",
      "lat": "35.12964267461724"
    },
    {
      "lot": "126.79427298162926",
      "instl_place_cd_nm": "주택단지",
      "zip": "62445",
      "pfct_nm": "도산호반2차",
      "facility_id": "161",
      "addr": "광주광역시 광산구 송도로162번길 11-6 (도산동, 호반2차아파트)",
      "lat": "35.12926148632031"
    },
    {
      "lot": "126.79719757934542",
      "instl_place_cd_nm": "주택단지",
      "zip": "62383",
      "pfct_nm": "성화파인빌",
      "facility_id": "162",
      "addr": "광주광역시 광산구 소촌로152번길 53-17 (소촌동, 성화파인빌)",
      "lat": "35.15774601683757"
    },
    {
      "lot": "126.79465297254072",
      "instl_place_cd_nm": "주택단지",
      "zip": "62385",
      "pfct_nm": "소촌모아드림1차-1 (3동 뒤)",
      "facility_id": "163",
      "addr": "광주광역시 광산구 소촌로86번길 17 (소촌동, 모아드림타운)",
      "lat": "35.15325296620197"
    },
    {
      "lot": "126.79601737863595",
      "instl_place_cd_nm": "주택단지",
      "zip": "62385",
      "pfct_nm": "소촌모아드림1차-2 (4동 앞)",
      "facility_id": "164",
      "addr": "광주광역시 광산구 소촌로86번길 17 (소촌동, 모아드림타운)",
      "lat": "35.15293754194122"
    },
    {
      "lot": "126.79711337592363",
      "instl_place_cd_nm": "주택단지",
      "zip": "62385",
      "pfct_nm": "소촌모아드림1차-3 (6동 뒤)",
      "facility_id": "165",
      "addr": "광주광역시 광산구 소촌로86번길 17 (소촌동, 모아드림타운)",
      "lat": "35.15242786098832"
    },
    {
      "lot": "126.79652507464888",
      "instl_place_cd_nm": "주택단지",
      "zip": "62385",
      "pfct_nm": "소촌라인1차-3(114동 옆 놀이터)",
      "facility_id": "166",
      "addr": "광주광역시 광산구 소촌로152번길 38 (소촌동, 라인1차아파트)",
      "lat": "35.15509602274395"
    },
    {
      "lot": "126.794881902644",
      "instl_place_cd_nm": "주택단지",
      "zip": "62385",
      "pfct_nm": "소촌라인1차-4(119동 옆 놀이터)",
      "facility_id": "167",
      "addr": "광주광역시 광산구 소촌로152번길 38 (소촌동, 라인1차아파트)",
      "lat": "35.15605319873655"
    },
    {
      "lot": "126.79282922323992",
      "instl_place_cd_nm": "주택단지",
      "zip": "62385",
      "pfct_nm": "소촌라인1차-5(126동 옆 놀이터)",
      "facility_id": "168",
      "addr": "광주광역시 광산구 소촌로152번길 38 (소촌동, 라인1차아파트)",
      "lat": "35.15672121810105"
    },
    {
      "lot": "126.80486253643221",
      "instl_place_cd_nm": "주택단지",
      "zip": "62368",
      "pfct_nm": "금호훼미리",
      "facility_id": "169",
      "addr": "광주광역시 광산구 사암로95번길 42 (소촌동, 금호주택조합아파트)",
      "lat": "35.15314590221746"
    },
    {
      "lot": "126.7919742",
      "instl_place_cd_nm": "주택단지",
      "zip": "62389",
      "pfct_nm": "소촌서라2차",
      "facility_id": "170",
      "addr": "광주광역시 광산구 어등대로665번길 26 (소촌동, 소촌동서라2차아파트)",
      "lat": "35.147033"
    },
    {
      "lot": "126.81077239228834",
      "instl_place_cd_nm": "주택단지",
      "zip": "62356",
      "pfct_nm": "하남금호타운-1",
      "facility_id": "171",
      "addr": "광주광역시 광산구 월곡산정로 80 (월곡동, 하남금호타운)",
      "lat": "35.16443126649432"
    },
    {
      "lot": "126.8119390224882",
      "instl_place_cd_nm": "주택단지",
      "zip": "62356",
      "pfct_nm": "하남금호타운 12동 앞 놀이터",
      "facility_id": "172",
      "addr": "광주광역시 광산구 월곡산정로 80 (월곡동, 하남금호타운)",
      "lat": "35.16485446764591"
    },
    {
      "lot": "126.81437088231867",
      "instl_place_cd_nm": "주택단지",
      "zip": "62354",
      "pfct_nm": "한성1차-1",
      "facility_id": "173",
      "addr": "광주광역시 광산구 월곡산정로 108 (월곡동, 한성아파트)",
      "lat": "35.16459231789637"
    },
    {
      "lot": "126.81487674748443",
      "instl_place_cd_nm": "주택단지",
      "zip": "62354",
      "pfct_nm": "한성1차-2",
      "facility_id": "174",
      "addr": "광주광역시 광산구 월곡산정로 108 (월곡동, 한성1차아파트)",
      "lat": "35.16477674351654"
    },
    {
      "lot": "126.81305750051368",
      "instl_place_cd_nm": "주택단지",
      "zip": "62354",
      "pfct_nm": "한성2차-1(202동앞)",
      "facility_id": "175",
      "addr": "광주광역시 광산구 월곡산정로 96-21 (월곡동, 한성2차아파트)",
      "lat": "35.164140746350014"
    },
    {
      "lot": "126.81269911656393",
      "instl_place_cd_nm": "주택단지",
      "zip": "62354",
      "pfct_nm": "한성2차-2(204동앞)",
      "facility_id": "176",
      "addr": "광주광역시 광산구 월곡산정로 96-21 (월곡동, 한성2차아파트)",
      "lat": "35.163665853455655"
    },
    {
      "lot": "126.81088264192245",
      "instl_place_cd_nm": "주택단지",
      "zip": "62329",
      "pfct_nm": "영천마을 주공10단지-1",
      "facility_id": "177",
      "addr": "광주광역시 광산구 사암로340번길 30 (월곡동, 영천마을 주공아파트)",
      "lat": "35.17429565971204"
    },
    {
      "lot": "126.81072723880942",
      "instl_place_cd_nm": "주택단지",
      "zip": "62329",
      "pfct_nm": "영천마을 주공10단지-2",
      "facility_id": "178",
      "addr": "광주광역시 광산구 사암로340번길 30 (월곡동, 영천마을 주공아파트)",
      "lat": "35.173259984378724"
    },
    {
      "lot": "126.80973156929124",
      "instl_place_cd_nm": "주택단지",
      "zip": "62329",
      "pfct_nm": "영천마을 주공10단지-3",
      "facility_id": "179",
      "addr": "광주광역시 광산구 사암로340번길 30 (월곡동, 영천마을 주공아파트)",
      "lat": "35.174207101642125"
    },
    {
      "lot": "126.81034976595737",
      "instl_place_cd_nm": "주택단지",
      "zip": "62329",
      "pfct_nm": "영천마을 주공10단지-4",
      "facility_id": "180",
      "addr": "광주광역시 광산구 사암로340번길 30 (월곡동, 영천마을 주공아파트)",
      "lat": "35.173312348651834"
    },
    {
      "lot": "126.8187735",
      "instl_place_cd_nm": "주택단지",
      "zip": "62235",
      "pfct_nm": "도천중흥2단지",
      "facility_id": "181",
      "addr": "광주광역시 광산구 비아로62번길 12 (도천동, 중흥아파트)",
      "lat": "35.2206978"
    },
    {
      "lot": "126.8299049",
      "instl_place_cd_nm": "주택단지",
      "zip": "62256",
      "pfct_nm": "첨단대우아파트 108동 앞",
      "facility_id": "182",
      "addr": "광주광역시 광산구 첨단중앙로181번길 88-21 (월계동, 첨단대우아파트)",
      "lat": "35.2200235"
    },
    {
      "lot": "126.83515280371886",
      "instl_place_cd_nm": "주택단지",
      "zip": "62255",
      "pfct_nm": "첨단금호타운아파트 103동 앞 놀이터",
      "facility_id": "183",
      "addr": "광주광역시 광산구 첨단중앙로181번길 42-5 (월계동, 첨단 금호타운)",
      "lat": "35.22050066367534"
    },
    {
      "lot": "126.83875277021174",
      "instl_place_cd_nm": "주택단지",
      "zip": "62254",
      "pfct_nm": "첨단벽산아파트 놀이터",
      "facility_id": "184",
      "addr": "광주광역시 광산구 첨단중앙로181번길 16 (월계동, 벽산아파트)",
      "lat": "35.22119053757821"
    },
    {
      "lot": "126.84007532314132",
      "instl_place_cd_nm": "주택단지",
      "zip": "62259",
      "pfct_nm": "첨단쌍용아파트 어린이놀이시설",
      "facility_id": "185",
      "addr": "광주광역시 광산구 첨단중앙로181번길 21 (월계동, 첨단지구쌍용아파트)",
      "lat": "35.21960704355969"
    },
    {
      "lot": "126.84015007390586",
      "instl_place_cd_nm": "주택단지",
      "zip": "62259",
      "pfct_nm": "첨단삼성아파트 관리사무소옆놀이시설",
      "facility_id": "186",
      "addr": "광주광역시 광산구 임방울대로 743 (월계동, 첨단삼성아파트)",
      "lat": "35.21859537730652"
    },
    {
      "lot": "126.8361611487978",
      "instl_place_cd_nm": "주택단지",
      "zip": "62258",
      "pfct_nm": "첨단라인3차 아파트 어린이놀이시설",
      "facility_id": "187",
      "addr": "광주광역시 광산구 임방울대로 727-5 (월계동, 첨단과학산업기지 라인3차아파트)",
      "lat": "35.218164157102464"
    },
    {
      "lot": "126.8304961",
      "instl_place_cd_nm": "주택단지",
      "zip": "62257",
      "pfct_nm": "첨단라인6차아파트놀이터",
      "facility_id": "188",
      "addr": "광주광역시 광산구 임방울대로 673-21 (월계동, 첨단6차 라인아파트)",
      "lat": "35.2173785"
    },
    {
      "lot": "126.83342549033897",
      "instl_place_cd_nm": "주택단지",
      "zip": "62262",
      "pfct_nm": "첨단모아미래도아파트 107동앞 어린이놀이시설",
      "facility_id": "189",
      "addr": "광주광역시 광산구 월계로 77 (월계동, 첨단 모아 미래도 아파트)",
      "lat": "35.2124864251565"
    },
    {
      "lot": "126.83777814240752",
      "instl_place_cd_nm": "주택단지",
      "zip": "62261",
      "pfct_nm": "첨단호반1차",
      "facility_id": "190",
      "addr": "광주광역시 광산구 월계로 117-35 (월계동, 첨단산업기지호반1차아파트)",
      "lat": "35.21626110623273"
    },
    {
      "lot": "126.83941554243454",
      "instl_place_cd_nm": "주택단지",
      "zip": "62260",
      "pfct_nm": "첨단라인1차-1(101동 옆)",
      "facility_id": "191",
      "addr": "광주광역시 광산구 월계로 117-32 (월계동, 첨단산업기지 라인1차아파트)",
      "lat": "35.21720294647127"
    },
    {
      "lot": "126.83940915117537",
      "instl_place_cd_nm": "주택단지",
      "zip": "62260",
      "pfct_nm": "첨단라인1차-2(112동 앞)",
      "facility_id": "192",
      "addr": "광주광역시 광산구 월계로 117-32 (월계동, 첨단산업기지 라인1차아파트)",
      "lat": "35.216265534009516"
    },
    {
      "lot": "126.84210782907904",
      "instl_place_cd_nm": "주택단지",
      "zip": "62260",
      "pfct_nm": "첨단라인1차-3(123동 옆)",
      "facility_id": "193",
      "addr": "광주광역시 광산구 월계로 117-32 (월계동, 첨단산업기지 라인1차아파트)",
      "lat": "35.21508718810768"
    },
    {
      "lot": "126.84515172409888",
      "instl_place_cd_nm": "주택단지",
      "zip": "62281",
      "pfct_nm": "첨단부영1차아파트(1놀이터)",
      "facility_id": "194",
      "addr": "광주광역시 광산구 월계로 170 (산월동, 부영아파트)",
      "lat": "35.212091875531165"
    },
    {
      "lot": "126.8451509154158",
      "instl_place_cd_nm": "주택단지",
      "zip": "62281",
      "pfct_nm": "첨단부영1차아파트(2놀이터)",
      "facility_id": "195",
      "addr": "광주광역시 광산구 월계로 170 (산월동, 부영아파트)",
      "lat": "35.21251776271646"
    },
    {
      "lot": "126.85109284588789",
      "instl_place_cd_nm": "주택단지",
      "zip": "62282",
      "pfct_nm": "첨단3-3차호반리젠시빌아파트 320동뒤놀이시설",
      "facility_id": "196",
      "addr": "광주광역시 광산구 첨단중앙로68번길 134 (산월동, 첨단3-3차 호반리젠시빌)",
      "lat": "35.21087912422044"
    },
    {
      "lot": "126.84553169641846",
      "instl_place_cd_nm": "주택단지",
      "zip": "62283",
      "pfct_nm": "첨단 부영e그린아파트타운1차(1103동 앞)",
      "facility_id": "197",
      "addr": "광주광역시 광산구 산월로 81 (산월동, 부영그린타운)",
      "lat": "35.20935338063154"
    },
    {
      "lot": "126.846254595129",
      "instl_place_cd_nm": "주택단지",
      "zip": "62283",
      "pfct_nm": "첨단 부영e그린아파트타운1차(1101동 앞)",
      "facility_id": "198",
      "addr": "광주광역시 광산구 산월로 81 (산월동, 부영그린타운)",
      "lat": "35.210380714285385"
    },
    {
      "lot": "126.83663386353672",
      "instl_place_cd_nm": "주택단지",
      "zip": "62296",
      "pfct_nm": "신창부영6차-1",
      "facility_id": "199",
      "addr": "광주광역시 광산구 신창로35번길 20 (신가동, 신창6차부영사랑으로)",
      "lat": "35.189849954534175"
    },
    {
      "lot": "126.8366667672051",
      "instl_place_cd_nm": "주택단지",
      "zip": "62296",
      "pfct_nm": "신창부영6차-2",
      "facility_id": "200",
      "addr": "광주광역시 광산구 신창로35번길 20 (신가동, 신창6차부영사랑으로)",
      "lat": "35.18918187026128"
    },
    {
      "lot": "126.81413996214641",
      "instl_place_cd_nm": "주택단지",
      "zip": "62324",
      "pfct_nm": "운남주공8단지 807동옆",
      "facility_id": "201",
      "addr": "광주광역시 광산구 목련로153번길 143 (운남동, 운남8단지 주공아파트)",
      "lat": "35.17864410856679"
    },
    {
      "lot": "126.81657237922325",
      "instl_place_cd_nm": "주택단지",
      "zip": "62325",
      "pfct_nm": "광주운남7단지아파트 703동앞놀이시설",
      "facility_id": "202",
      "addr": "광주광역시 광산구 목련로153번길 56 (운남동)",
      "lat": "35.17403738243392"
    },
    {
      "lot": "126.81544621716985",
      "instl_place_cd_nm": "주택단지",
      "zip": "62325",
      "pfct_nm": "광주운남7단지아파트 710동앞놀이시설",
      "facility_id": "203",
      "addr": "광주광역시 광산구 목련로153번길 56 (운남동)",
      "lat": "35.17385427400101"
    },
    {
      "lot": "126.81558566933941",
      "instl_place_cd_nm": "주택단지",
      "zip": "62325",
      "pfct_nm": "광주운남7단지아파트 유아놀이시설",
      "facility_id": "204",
      "addr": "광주광역시 광산구 목련로153번길 56 (운남동)",
      "lat": "35.174080952073055"
    },
    {
      "lot": "126.83695728027229",
      "instl_place_cd_nm": "주택단지",
      "zip": "62250",
      "pfct_nm": "신창부영5차",
      "facility_id": "205",
      "addr": "광주광역시 광산구 신창로71번길 16 (신창동, 신창5차부영사랑으로)",
      "lat": "35.19352791338028"
    },
    {
      "lot": "126.8380741",
      "instl_place_cd_nm": "도시공원",
      "zip": "62293",
      "pfct_nm": "그린나래 어린이공원 놀이터",
      "facility_id": "206",
      "addr": "광산구 신창동 1210-3",
      "lat": "35.1891015"
    },
    {
      "lot": "126.9290958",
      "instl_place_cd_nm": "어린이집",
      "zip": "61506",
      "pfct_nm": "백암어린이집 놀이터",
      "facility_id": "207",
      "addr": "광주광역시 동구 천변좌로630번길 6 (소태동)",
      "lat": "35.1282383"
    },
    {
      "lot": "126.8868386",
      "instl_place_cd_nm": "어린이집",
      "zip": "61610",
      "pfct_nm": "실로암어린이집 놀이터",
      "facility_id": "208",
      "addr": "광주광역시 남구 군분로 166 (월산동)",
      "lat": "35.1468164"
    },
    {
      "lot": "126.80209236325382",
      "instl_place_cd_nm": "주택단지",
      "zip": "62426",
      "pfct_nm": "모아아파트 어린이놀이터",
      "facility_id": "209",
      "addr": "광주광역시 광산구 송도로320번길 16-6 (송정동, 송정동모아아파트)",
      "lat": "35.14085024223083"
    },
    {
      "lot": "126.79473714590479",
      "instl_place_cd_nm": "주택단지",
      "zip": "62385",
      "pfct_nm": "소촌동온세계아파트 놀이시설",
      "facility_id": "210",
      "addr": "광주광역시 광산구 소촌로152번길 20 (소촌동, 온세계 아트빌)",
      "lat": "35.15688107643225"
    },
    {
      "lot": "126.79986135825904",
      "instl_place_cd_nm": "주택단지",
      "zip": "62379",
      "pfct_nm": "소촌라인2차",
      "facility_id": "211",
      "addr": "광주광역시 광산구 금봉로 18 (소촌동, 소촌2차 라인아파트)",
      "lat": "35.15122799026341"
    },
    {
      "lot": "126.80876735301347",
      "instl_place_cd_nm": "주택단지",
      "zip": "62356",
      "pfct_nm": "하남금호타운 3동 앞 놀이터",
      "facility_id": "212",
      "addr": "광주광역시 광산구 월곡산정로 80 (월곡동, 하남금호타운)",
      "lat": "35.164055181524404"
    },
    {
      "lot": "126.8097951",
      "instl_place_cd_nm": "주택단지",
      "zip": "62328",
      "pfct_nm": "영천마을 주공9단지-5",
      "facility_id": "213",
      "addr": "광주광역시 광산구 풍영로 63 (월곡동, 영천마을 주공아파트)",
      "lat": "35.1780344"
    },
    {
      "lot": "126.83033815159385",
      "instl_place_cd_nm": "주택단지",
      "zip": "62256",
      "pfct_nm": "첨단건영아파트관리동놀이터",
      "facility_id": "214",
      "addr": "광주광역시 광산구 첨단중앙로181번길 104 (월계동, 건영아파트)",
      "lat": "35.21833190005643"
    },
    {
      "lot": "126.83545996695374",
      "instl_place_cd_nm": "주택단지",
      "zip": "62255",
      "pfct_nm": "첨단금호타운아파트 101동 앞 놀이터",
      "facility_id": "215",
      "addr": "광주광역시 광산구 첨단중앙로181번길 42-5 (월계동, 첨단 금호타운)",
      "lat": "35.220010972799585"
    },
    {
      "lot": "126.8387360047146",
      "instl_place_cd_nm": "주택단지",
      "zip": "62254",
      "pfct_nm": "첨단동부아파트 103동놀이시설",
      "facility_id": "216",
      "addr": "광주광역시 광산구 첨단중앙로 201 (월계동, 첨단동부아파트)",
      "lat": "35.222725062253076"
    },
    {
      "lot": "126.8398933871088",
      "instl_place_cd_nm": "주택단지",
      "zip": "62254",
      "pfct_nm": "첨단동부아파트 105동놀이시설",
      "facility_id": "217",
      "addr": "광주광역시 광산구 첨단중앙로 201 (월계동, 첨단동부아파트)",
      "lat": "35.22346119793325"
    },
    {
      "lot": "126.84952499132706",
      "instl_place_cd_nm": "주택단지",
      "zip": "62282",
      "pfct_nm": "첨단3-2호반리젠시빌",
      "facility_id": "218",
      "addr": "광주광역시 광산구 첨단중앙로68번길 100 (산월동, 첨단3-2차 호반리젠시빌)",
      "lat": "35.2109301402264"
    },
    {
      "lot": "126.85097000761793",
      "instl_place_cd_nm": "주택단지",
      "zip": "62282",
      "pfct_nm": "첨단3-3차호반리젠시빌아파트 314동앞놀이시설",
      "facility_id": "219",
      "addr": "광주광역시 광산구 첨단중앙로68번길 134 (산월동, 첨단3-3차 호반리젠시빌)",
      "lat": "35.20898500895103"
    },
    {
      "lot": "126.84524550628481",
      "instl_place_cd_nm": "주택단지",
      "zip": "62283",
      "pfct_nm": "첨단부영2차-1",
      "facility_id": "220",
      "addr": "광주광역시 광산구 첨단중앙로68번길 22 (산월동, 부영아파트)",
      "lat": "35.21041886285179"
    },
    {
      "lot": "126.84323888418771",
      "instl_place_cd_nm": "주택단지",
      "zip": "62283",
      "pfct_nm": "첨단부영2차-2",
      "facility_id": "221",
      "addr": "광주광역시 광산구 첨단중앙로68번길 22 (산월동, 부영아파트)",
      "lat": "35.21090977114451"
    },
    {
      "lot": "126.84624635827963",
      "instl_place_cd_nm": "주택단지",
      "zip": "62283",
      "pfct_nm": "첨단3-1차호반리젠시빌아파트 놀이시설",
      "facility_id": "222",
      "addr": "광주광역시 광산구 첨단중앙로68번길 60 (산월동, 첨단3-1차 호반리젠시빌)",
      "lat": "35.210380703826"
    },
    {
      "lot": "126.84025224306569",
      "instl_place_cd_nm": "주택단지",
      "zip": "62297",
      "pfct_nm": "신창6차호반베르디움아파트 610동앞놀이터",
      "facility_id": "223",
      "addr": "광주광역시 광산구 신창로35번길 80 (신가동, 신창6차호반베르디움)",
      "lat": "35.19867903061433"
    },
    {
      "lot": "126.83805728449941",
      "instl_place_cd_nm": "주택단지",
      "zip": "62249",
      "pfct_nm": "신창1차남양휴튼아파트 놀이시설",
      "facility_id": "224",
      "addr": "광주광역시 광산구 신창로131번길 10 (신창동, 신창1차남양휴튼)",
      "lat": "35.19806206865117"
    },
    {
      "lot": "126.83622891516228",
      "instl_place_cd_nm": "주택단지",
      "zip": "62250",
      "pfct_nm": "신창2차남양휴튼아파트 놀이시설",
      "facility_id": "225",
      "addr": "광주광역시 광산구 신창로71번길 17 (신창동, 신창2차남양휴튼)",
      "lat": "35.19125326622191"
    },
    {
      "lot": "126.83557006801597",
      "instl_place_cd_nm": "주택단지",
      "zip": "62249",
      "pfct_nm": "신창5차호반베르디움아파트 501동앞놀이시설",
      "facility_id": "226",
      "addr": "광주광역시 광산구 왕버들로251번길 27 (신창동, 신창5차호반베르디움)",
      "lat": "35.197409742982046"
    },
    {
      "lot": "126.83786480492569",
      "instl_place_cd_nm": "주택단지",
      "zip": "62249",
      "pfct_nm": "신창5차호반베르디움아파트 513동옆놀이시설",
      "facility_id": "227",
      "addr": "광주광역시 광산구 왕버들로251번길 27 (신창동, 신창5차호반베르디움)",
      "lat": "35.198911335998645"
    },
    {
      "lot": "126.81689465293874",
      "instl_place_cd_nm": "도시공원",
      "zip": "62327",
      "pfct_nm": "운남근린공원 놀이터",
      "facility_id": "228",
      "addr": "광주광역시 광산구 목련로 156 (운남동)",
      "lat": "35.17106339452439"
    },
    {
      "lot": "126.83440275593355",
      "instl_place_cd_nm": "주택단지",
      "zip": "62296",
      "pfct_nm": "신창부영7차-1",
      "facility_id": "229",
      "addr": "광주광역시 광산구 신창로35번길 54 (신가동, 신창7차부영사랑으로)",
      "lat": "35.18891627642507"
    },
    {
      "lot": "126.83438195731267",
      "instl_place_cd_nm": "주택단지",
      "zip": "62296",
      "pfct_nm": "신창부영7차-2",
      "facility_id": "230",
      "addr": "광주광역시 광산구 신창로35번길 54 (신가동, 신창7차부영사랑으로)",
      "lat": "35.18889782921334"
    },
    {
      "lot": "126.83373535686697",
      "instl_place_cd_nm": "주택단지",
      "zip": "62297",
      "pfct_nm": "신창6차호반베르디움아파트 605동앞놀이터",
      "facility_id": "231",
      "addr": "광주광역시 광산구 신창로35번길 80 (신가동, 신창6차호반베르디움)",
      "lat": "35.187085613051586"
    },
    {
      "lot": "126.83818319980233",
      "instl_place_cd_nm": "주택단지",
      "zip": "62295",
      "pfct_nm": "신가삼능",
      "facility_id": "232",
      "addr": "광주광역시 광산구 신창로 20 (신창동, 삼능아파트)",
      "lat": "35.18717050587847"
    },
    {
      "lot": "126.8396075",
      "instl_place_cd_nm": "주택단지",
      "zip": "62249",
      "pfct_nm": "신창3차호반베르디움아파트 놀이시설",
      "facility_id": "233",
      "addr": "광주광역시 광산구 신창로161번길 19 (신창동, 신창3차호반베르디움)",
      "lat": "35.1991614"
    },
    {
      "lot": "126.94388359481276",
      "instl_place_cd_nm": "주택단지",
      "zip": "61492",
      "pfct_nm": "운림 라인1차아파트 어린이놀이시설 1",
      "facility_id": "234",
      "addr": "광주광역시 동구 운림길 71 (운림동)",
      "lat": "35.134381724057825"
    },
    {
      "lot": "126.94516117896809",
      "instl_place_cd_nm": "주택단지",
      "zip": "61492",
      "pfct_nm": "운림라인2차아파트 놀이시설",
      "facility_id": "235",
      "addr": "광주광역시 동구 의재로 149-7 (운림동)",
      "lat": "35.133361514842576"
    },
    {
      "lot": "126.80691445437512",
      "instl_place_cd_nm": "주택단지",
      "zip": "62346",
      "pfct_nm": "월곡동 하남부영아파트 어린이놀이시설-2",
      "facility_id": "236",
      "addr": "광주광역시 광산구 사암로 251 (월곡동, 하남부영아파트)",
      "lat": "35.16723515967305"
    },
    {
      "lot": "126.83195125147435",
      "instl_place_cd_nm": "주택단지",
      "zip": "62255",
      "pfct_nm": "첨단라인5차",
      "facility_id": "237",
      "addr": "광주광역시 광산구 첨단중앙로181번길 88-16 (월계동, 첨단라인5차아파트)",
      "lat": "35.219717721415726"
    },
    {
      "lot": "126.8495156781717",
      "instl_place_cd_nm": "주택단지",
      "zip": "62280",
      "pfct_nm": "첨단부영3차아파트 놀이시설",
      "facility_id": "238",
      "addr": "광주광역시 광산구 첨단중앙로68번길 131 (산월동, 부영아파트)",
      "lat": "35.2122573678476"
    },
    {
      "lot": "126.8457250905989",
      "instl_place_cd_nm": "주택단지",
      "zip": "62285",
      "pfct_nm": "첨단부영7차아파트 1304동놀이시설",
      "facility_id": "239",
      "addr": "광주광역시 광산구 산월로 80 (산월동, 부영사랑으로)",
      "lat": "35.207265872174645"
    },
    {
      "lot": "126.84700079189898",
      "instl_place_cd_nm": "주택단지",
      "zip": "62285",
      "pfct_nm": "첨단부영7차아파트 1305동놀이시설",
      "facility_id": "240",
      "addr": "광주광역시 광산구 산월로 80 (산월동, 부영사랑으로)",
      "lat": "35.207780134497206"
    },
    {
      "lot": "126.84179676853124",
      "instl_place_cd_nm": "주택단지",
      "zip": "62252",
      "pfct_nm": "신창부영1차-1",
      "facility_id": "241",
      "addr": "광주광역시 광산구 장신로265번길 22 (신창동, 신창부영아파트)",
      "lat": "35.19213498066326"
    },
    {
      "lot": "126.84034607762254",
      "instl_place_cd_nm": "주택단지",
      "zip": "62252",
      "pfct_nm": "신창부영1차-2",
      "facility_id": "242",
      "addr": "광주광역시 광산구 장신로265번길 22 (신창동, 신창부영아파트)",
      "lat": "35.191409740550256"
    },
    {
      "lot": "126.82377724429779",
      "instl_place_cd_nm": "어린이집",
      "zip": "62245",
      "pfct_nm": "버클리 어린이집 놀이터",
      "facility_id": "243",
      "addr": "광주광역시 광산구 왕버들로 113-23 (수완동)버클리 어린이집",
      "lat": "35.202900418232424"
    },
    {
      "lot": "126.8662681",
      "instl_place_cd_nm": "아동복지시설",
      "zip": "61095",
      "pfct_nm": "광주애육원 놀이공간",
      "facility_id": "244",
      "addr": "광주광역시 북구 북문대로242번길 40 (동림동)",
      "lat": "35.1910203"
    },
    {
      "lot": "126.90070412591196",
      "instl_place_cd_nm": "주택단지",
      "zip": "61745",
      "pfct_nm": "송화마을휴먼시아2단지아파트 어린이놀이시설(202동 앞)",
      "facility_id": "245",
      "addr": "광주광역시 남구 효우로60번길 37 (노대동, 송화마을휴먼시아2단지아파트)",
      "lat": "35.10790010310343"
    },
    {
      "lot": "126.80750767071882",
      "instl_place_cd_nm": "주택단지",
      "zip": "62377",
      "pfct_nm": "신촌동 중도다이아빌",
      "facility_id": "246",
      "addr": "광주광역시 광산구 사암로 72-10 (신촌동, 중도다이아빌)",
      "lat": "35.150144100593565"
    },
    {
      "lot": "126.83030634010731",
      "instl_place_cd_nm": "주택단지",
      "zip": "62304",
      "pfct_nm": "신가주공아파트 어린이놀이터1(102동 옆)",
      "facility_id": "247",
      "addr": "광주광역시 광산구 수등로 204 (신가동, 주공아파트)",
      "lat": "35.18478803681647"
    },
    {
      "lot": "126.81417204882364",
      "instl_place_cd_nm": "도시공원",
      "zip": "",
      "pfct_nm": "제2풍영정근린공원 1호공원 놀이터",
      "facility_id": "248",
      "addr": "광산구 운남동 793-1",
      "lat": "35.17241914943999"
    },
    {
      "lot": "126.8124699",
      "instl_place_cd_nm": "도시공원",
      "zip": "62329",
      "pfct_nm": "제1풍영정근린공원 1호공원 놀이터",
      "facility_id": "249",
      "addr": "광주광역시 광산구 풍영로 34 (월곡동)",
      "lat": "35.1744096"
    },
    {
      "lot": "126.8371435",
      "instl_place_cd_nm": "어린이집",
      "zip": "62253",
      "pfct_nm": "첨단해바라기어린이집 놀이터",
      "facility_id": "250",
      "addr": "광주광역시 광산구 첨단과기로 93-30 (비아동)첨단해바라기어린이집",
      "lat": "35.2255356"
    },
    {
      "lot": "126.897685",
      "instl_place_cd_nm": "식품접객업소",
      "zip": "61725",
      "pfct_nm": "뼈통 묵은지 감자탕(진월점) 실내놀이터",
      "facility_id": "251",
      "addr": "광주광역시 남구 서문대로 723 (진월동)",
      "lat": "35.1236948"
    },
    {
      "lot": "126.8588274247198",
      "instl_place_cd_nm": "주택단지",
      "zip": "61902",
      "pfct_nm": "동천마을 2단지 휴먼시아 아파트 놀이터 1놀이터",
      "facility_id": "252",
      "addr": "광주광역시 서구 동천로 11(동천동, 동천마을2단지휴먼시아아파트)",
      "lat": "35.16955453886288"
    },
    {
      "lot": "126.85871808156551",
      "instl_place_cd_nm": "주택단지",
      "zip": "61902",
      "pfct_nm": "동천마을 2단지 휴먼시아 아파트 놀이터 2놀이터",
      "facility_id": "253",
      "addr": "광주광역시 서구 동천로 11(동천동, 동천마을2단지휴먼시아아파트)",
      "lat": "35.16851447032911"
    },
    {
      "lot": "126.87157196710214",
      "instl_place_cd_nm": "주택단지",
      "zip": "61091",
      "pfct_nm": "연제동_연제1차대주피오레아파트(놀이터 1)",
      "facility_id": "254",
      "addr": "광주광역시 북구 양일로 70 (연제동, 1차 대주피오레아파트)",
      "lat": "35.19659194701548"
    },
    {
      "lot": "126.8806836",
      "instl_place_cd_nm": "어린이집",
      "zip": "62040",
      "pfct_nm": "베이비월드어린이집 놀이시설",
      "facility_id": "255",
      "addr": "광주광역시 서구 월드컵4강로28번길 43-3(화정동, 베이비월드어린이집)",
      "lat": "35.1409577"
    },
    {
      "lot": "126.9054660474065",
      "instl_place_cd_nm": "주택단지",
      "zip": "61219",
      "pfct_nm": "신안동모아타운아파트 어린이놀이터",
      "facility_id": "256",
      "addr": "광주광역시 북구 서양로 30 (신안동, 모아아파트)",
      "lat": "35.169492875853166"
    },
    {
      "lot": "126.88377250822869",
      "instl_place_cd_nm": "주택단지",
      "zip": "61025",
      "pfct_nm": "GS그린자이1차아파트 제1놀이터(101동뒤)",
      "facility_id": "257",
      "addr": "광주광역시 북구 양산로71번길 10 (양산동, 지에스그린자이1차아파트)",
      "lat": "35.21110756870441"
    },
    {
      "lot": "126.90404768182013",
      "instl_place_cd_nm": "주택단지",
      "zip": "61182",
      "pfct_nm": "용봉동_한화꿈에그린아파트(놀이터B)",
      "facility_id": "258",
      "addr": "광주광역시 북구 용주로30번길 60 (용봉동, 한화 꿈에그린 아파트)",
      "lat": "35.179653434636286"
    },
    {
      "lot": "126.8715324",
      "instl_place_cd_nm": "주택단지",
      "zip": "61904",
      "pfct_nm": "동천마을주공6단지아파트 유아놀이시설",
      "facility_id": "259",
      "addr": "광주광역시 서구 하남대로710번길 5(동천동, 광주동림2휴먼시아6단지)",
      "lat": "35.170353"
    },
    {
      "lot": "126.86783796975023",
      "instl_place_cd_nm": "주택단지",
      "zip": "61268",
      "pfct_nm": "운암동_운암산 I'PARK아파트(놀이터 2)",
      "facility_id": "260",
      "addr": "광주광역시 북구 서강로 77 (운암동)",
      "lat": "35.179006415764306"
    },
    {
      "lot": "126.87592179939524",
      "instl_place_cd_nm": "주택단지",
      "zip": "61257",
      "pfct_nm": "운암동_삼호아파트",
      "facility_id": "261",
      "addr": "광주광역시 북구 황계로55번길 11 (운암동, 삼호아파트)",
      "lat": "35.17739590528951"
    },
    {
      "lot": "126.93823822709284",
      "instl_place_cd_nm": "주택단지",
      "zip": "61159",
      "pfct_nm": "두암동_모아미래도아파트",
      "facility_id": "262",
      "addr": "광주광역시 북구 삼정로 20 (두암동, 모아미래도아파트)",
      "lat": "35.16359659880204"
    },
    {
      "lot": "126.808394",
      "instl_place_cd_nm": "어린이집",
      "zip": "62333",
      "pfct_nm": "오색어린이집 놀이터",
      "facility_id": "263",
      "addr": "광주광역시 광산구 사암로339번길 39 (월곡동)오색어린이집",
      "lat": "35.1730447"
    },
    {
      "lot": "126.8698457433567",
      "instl_place_cd_nm": "주택단지",
      "zip": "61097",
      "pfct_nm": "푸른마을주공4단지아파트 관리사무소 앞 놀이시설",
      "facility_id": "264",
      "addr": "광주광역시 북구 동림용산로 12, 푸른마을주공4단지아파트 (동림동)",
      "lat": "35.188523289275686"
    },
    {
      "lot": "126.87184188352256",
      "instl_place_cd_nm": "주택단지",
      "zip": "61257",
      "pfct_nm": "운암동_롯데캐슬아파트(놀이터 1(105동앞))",
      "facility_id": "265",
      "addr": "광주광역시 북구 서강로54번길 11 (운암동, 롯데캐슬)",
      "lat": "35.17664578493128"
    },
    {
      "lot": "126.87534284046602",
      "instl_place_cd_nm": "주택단지",
      "zip": "61257",
      "pfct_nm": "운암동_롯데캐슬아파트(놀이터 2(112동앞))",
      "facility_id": "266",
      "addr": "광주광역시 북구 서강로54번길 11 (운암동, 롯데캐슬)",
      "lat": "35.17640945228677"
    },
    {
      "lot": "126.87469375312067",
      "instl_place_cd_nm": "주택단지",
      "zip": "61258",
      "pfct_nm": "운암동_롯데캐슬아파트(놀이터 5(301동앞))",
      "facility_id": "267",
      "addr": "광주광역시 북구 서강로54번길 32 (운암동, 롯데캐슬)",
      "lat": "35.1755265798548"
    },
    {
      "lot": "126.86062239910606",
      "instl_place_cd_nm": "주택단지",
      "zip": "61941",
      "pfct_nm": "쌍촌 중흥-1 놀이터(상무중흥S클래스)",
      "facility_id": "268",
      "addr": "광주광역시 서구 상무민주로 104(쌍촌동, 중흥에스-클레스)",
      "lat": "35.15896227958873"
    },
    {
      "lot": "126.85986260065803",
      "instl_place_cd_nm": "주택단지",
      "zip": "61941",
      "pfct_nm": "쌍촌 중흥-2 놀이터(상무중흥S클래스)",
      "facility_id": "269",
      "addr": "광주광역시 서구 상무민주로 104(쌍촌동, 중흥에스-클레스)",
      "lat": "35.160410337361704"
    },
    {
      "lot": "126.8752742",
      "instl_place_cd_nm": "어린이집",
      "zip": "61908",
      "pfct_nm": "천사어린이집 놀이터",
      "facility_id": "270",
      "addr": "광주광역시 서구 천변좌하로584번길 12(광천동, 천사어린이집)",
      "lat": "35.1675207"
    },
    {
      "lot": "126.88495206500657",
      "instl_place_cd_nm": "주택단지",
      "zip": "61026",
      "pfct_nm": "본촌동_양산부영사랑으로아파트(놀이터1)",
      "facility_id": "271",
      "addr": "광주광역시 북구 양산택지소로 30 (본촌동, 부영사랑으로아파트)",
      "lat": "35.21381387556338"
    },
    {
      "lot": "126.86852697753436",
      "instl_place_cd_nm": "주택단지",
      "zip": "61268",
      "pfct_nm": "운암동_운암산 I'PARK아파트(놀이터 1)",
      "facility_id": "272",
      "addr": "광주광역시 북구 서강로 77 (운암동)",
      "lat": "35.179783458398035"
    },
    {
      "lot": "126.85580047079158",
      "instl_place_cd_nm": "주택단지",
      "zip": "62004",
      "pfct_nm": "금호동 코아루아파트 놀이터(105동)",
      "facility_id": "273",
      "addr": "광주광역시 서구 금호운천길 41(금호동, 금호동 코아루)",
      "lat": "35.13925740725341"
    },
    {
      "lot": "126.8645317",
      "instl_place_cd_nm": "어린이집",
      "zip": "61992",
      "pfct_nm": "YWCA어린이집 놀이터",
      "facility_id": "274",
      "addr": "광주광역시 서구 쌍촌로43번길 1",
      "lat": "35.1486085"
    },
    {
      "lot": "126.892322",
      "instl_place_cd_nm": "어린이집",
      "zip": "61918",
      "pfct_nm": "양3동어린이집 놀이터",
      "facility_id": "275",
      "addr": "광주광역시 서구 발산로 33-1 (양동)",
      "lat": "35.1584664"
    },
    {
      "lot": "126.88412565199344",
      "instl_place_cd_nm": "주택단지",
      "zip": "61026",
      "pfct_nm": "본촌동_양산부영사랑으로아파트(놀이터2)",
      "facility_id": "276",
      "addr": "광주광역시 북구 양산택지소로 30 (본촌동, 부영사랑으로아파트)",
      "lat": "35.21474147891428"
    },
    {
      "lot": "126.89621743044776",
      "instl_place_cd_nm": "주택단지",
      "zip": "61040",
      "pfct_nm": "일곡동_현대2차아파트(놀이터 2)",
      "facility_id": "277",
      "addr": "광주광역시 북구 일곡마을로 55 (일곡동, 현대2차아파트)",
      "lat": "35.20442408338322"
    },
    {
      "lot": "126.8928173187262",
      "instl_place_cd_nm": "주택단지",
      "zip": "61064",
      "pfct_nm": "용봉동_중흥s클래스아파트",
      "facility_id": "278",
      "addr": "광주광역시 북구 서하로106번길 25 (용봉동, 중흥S-클래스)",
      "lat": "35.185541137508785"
    },
    {
      "lot": "126.92340899614858",
      "instl_place_cd_nm": "주택단지",
      "zip": "61134",
      "pfct_nm": "문흥동_상록아파트103동뒤놀이터",
      "facility_id": "279",
      "addr": "광주광역시 북구 문산로 20 (문흥동, 상록 아파트)",
      "lat": "35.183013509635614"
    },
    {
      "lot": "126.85801071304758",
      "instl_place_cd_nm": "주택단지",
      "zip": "61902",
      "pfct_nm": "동천마을 2단지 휴먼시아 아파트 놀이터 유아놀이터",
      "facility_id": "280",
      "addr": "광주광역시 서구 동천로 11(동천동, 동천마을2단지휴먼시아아파트)",
      "lat": "35.16893615457381"
    },
    {
      "lot": "126.89499975086234",
      "instl_place_cd_nm": "주택단지",
      "zip": "61736",
      "pfct_nm": "금광하늘연가아파트 어린이놀(103동앞)",
      "facility_id": "281",
      "addr": "광주광역시 남구 서문대로663번안길 12 (진월동, 금광하늘연가아파트)",
      "lat": "35.116945013531804"
    },
    {
      "lot": "126.89481471830952",
      "instl_place_cd_nm": "주택단지",
      "zip": "61111",
      "pfct_nm": "용봉동_모아미래도아파트(105동 뒤)",
      "facility_id": "282",
      "addr": "광주광역시 북구 저불로 21 (용봉동, 모아미래도아파트)",
      "lat": "35.1755153024183"
    },
    {
      "lot": "126.89334581127885",
      "instl_place_cd_nm": "주택단지",
      "zip": "61111",
      "pfct_nm": "용봉동_모아미래도아파트(106동 옆)놀이터",
      "facility_id": "283",
      "addr": "광주광역시 북구 저불로 21 (용봉동, 모아미래도아파트)",
      "lat": "35.17599399045046"
    },
    {
      "lot": "126.87328530828988",
      "instl_place_cd_nm": "주택단지",
      "zip": "61256",
      "pfct_nm": "운암동_운암프라자아파트",
      "facility_id": "287",
      "addr": "광주광역시 북구 서강로 104-3 (운암동)",
      "lat": "35.18029666918506"
    },
    {
      "lot": "126.8909199545506",
      "instl_place_cd_nm": "주택단지",
      "zip": "61113",
      "pfct_nm": "운암동한국아파트놀이시설",
      "facility_id": "288",
      "addr": "광주광역시 북구 금호로40번길 33 (운암동)",
      "lat": "35.17477725193615"
    },
    {
      "lot": "126.87587128656658",
      "instl_place_cd_nm": "주택단지",
      "zip": "61098",
      "pfct_nm": "운암미라보3차아파트 303동옆놀이터",
      "facility_id": "289",
      "addr": "광주광역시 북구 서강로 155 (운암동)",
      "lat": "35.18534806453586"
    },
    {
      "lot": "126.8863223162647",
      "instl_place_cd_nm": "주택단지",
      "zip": "61108",
      "pfct_nm": "운암중흥파크1차아파트 105동옆놀이시설",
      "facility_id": "290",
      "addr": "광주광역시 북구 금호로86번길 30 (운암동, 중흥아파트)",
      "lat": "35.180225104205896"
    },
    {
      "lot": "126.90159302649899",
      "instl_place_cd_nm": "주택단지",
      "zip": "61051",
      "pfct_nm": "삼각동_서라아파트",
      "facility_id": "291",
      "addr": "광주광역시 북구 우치로347번길 15 (삼각동, 삼각동 서라아파트)",
      "lat": "35.195274202456545"
    },
    {
      "lot": "126.89689879911734",
      "instl_place_cd_nm": "주택단지",
      "zip": "61063",
      "pfct_nm": "용봉동_용봉주공아파트(105동 앞)",
      "facility_id": "292",
      "addr": "광주광역시 북구 매곡로 20 (용봉동, 용봉주공아파트)",
      "lat": "35.1866443340882"
    },
    {
      "lot": "126.89504815958533",
      "instl_place_cd_nm": "주택단지",
      "zip": "61063",
      "pfct_nm": "용봉동_용봉주공아파트(101동 옆)",
      "facility_id": "293",
      "addr": "광주광역시 북구 매곡로 20 (용봉동, 용봉주공아파트)",
      "lat": "35.18713172970774"
    },
    {
      "lot": "126.87258244739711",
      "instl_place_cd_nm": "주택단지",
      "zip": "61102",
      "pfct_nm": "운암우미1차아파트 102동앞놀이시설",
      "facility_id": "294",
      "addr": "광주광역시 북구 북문대로 166 (운암동, 우미아파트)",
      "lat": "35.1839678291629"
    },
    {
      "lot": "126.8951038969821",
      "instl_place_cd_nm": "주택단지",
      "zip": "61040",
      "pfct_nm": "일곡동_현대2차아파트(놀이터 1)",
      "facility_id": "295",
      "addr": "광주광역시 북구 일곡마을로 55 (일곡동, 현대2차아파트)",
      "lat": "35.204629308253956"
    },
    {
      "lot": "126.91995822393613",
      "instl_place_cd_nm": "주택단지",
      "zip": "61133",
      "pfct_nm": "문흥동_제일아파트(103동 뒤)",
      "facility_id": "296",
      "addr": "광주광역시 북구 천지인로 191 (문흥동)",
      "lat": "35.183705322374045"
    },
    {
      "lot": "126.9024656936767",
      "instl_place_cd_nm": "주택단지",
      "zip": "61051",
      "pfct_nm": "삼각동우미타운아파트 놀이시설",
      "facility_id": "297",
      "addr": "광주광역시 북구 안산로 76 (삼각동, 삼각동 우미타운)",
      "lat": "35.19436003412175"
    },
    {
      "lot": "126.92718061659085",
      "instl_place_cd_nm": "주택단지",
      "zip": "61171",
      "pfct_nm": "우산동_우미프라자아파트",
      "facility_id": "298",
      "addr": "광주광역시 북구 평교로18번길 50 (우산동)",
      "lat": "35.17795359337093"
    },
    {
      "lot": "126.88556014796275",
      "instl_place_cd_nm": "주택단지",
      "zip": "61255",
      "pfct_nm": "임동_임동주공아파트(놀이터 1)",
      "facility_id": "299",
      "addr": "광주광역시 북구 천변우로 11 (임동, 주공아파트)",
      "lat": "35.16983850287401"
    },
    {
      "lot": "126.88597665792771",
      "instl_place_cd_nm": "주택단지",
      "zip": "61255",
      "pfct_nm": "임동_임동주공아파트(놀이터 2)",
      "facility_id": "300",
      "addr": "광주광역시 북구 천변우로 11 (임동, 주공아파트)",
      "lat": "35.16929808106663"
    },
    {
      "lot": "126.93828303146692",
      "instl_place_cd_nm": "주택단지",
      "zip": "61149",
      "pfct_nm": "각화동_글로벌아파트",
      "facility_id": "301",
      "addr": "광주광역시 북구 월동로 88 (각화동, 글로벌아파트)",
      "lat": "35.17958223007942"
    },
    {
      "lot": "126.86873708573249",
      "instl_place_cd_nm": "주택단지",
      "zip": "61097",
      "pfct_nm": "푸른마을주공4단지아파트 414동뒤놀이시설",
      "facility_id": "302",
      "addr": "광주광역시 북구 동림용산로 12, 푸른마을주공4단지아파트 (동림동)",
      "lat": "35.18685953981646"
    },
    {
      "lot": "126.86942551588261",
      "instl_place_cd_nm": "주택단지",
      "zip": "61097",
      "pfct_nm": "푸른마을주공4단지아파트 관리사무소 옆 놀이시설",
      "facility_id": "303",
      "addr": "광주광역시 북구 동림용산로 12, 푸른마을주공4단지아파트 (동림동)",
      "lat": "35.1882204649439"
    },
    {
      "lot": "",
      "instl_place_cd_nm": "주택단지",
      "zip": "61169",
      "pfct_nm": "대주1차아파트 놀이시설",
      "facility_id": "304",
      "addr": "광주광역시 북구 평교로 42 (문흥동, 대주1차아파트)",
      "lat": ""
    },
    {
      "lot": "126.88876303880762",
      "instl_place_cd_nm": "주택단지",
      "zip": "61061",
      "pfct_nm": "매곡동서광인텔파크아파트(놀이터 1)",
      "facility_id": "305",
      "addr": "광주광역시 북구 하백로 45 (매곡동, 서광인텔파크아파트)",
      "lat": "35.19088548778703"
    },
    {
      "lot": "126.89031872003626",
      "instl_place_cd_nm": "주택단지",
      "zip": "61061",
      "pfct_nm": "매곡동서광인텔파크아파트(놀이터 2)",
      "facility_id": "306",
      "addr": "광주광역시 북구 하백로 45 (매곡동, 서광인텔파크아파트)",
      "lat": "35.19071231965482"
    },
    {
      "lot": "126.87144283676793",
      "instl_place_cd_nm": "주택단지",
      "zip": "61904",
      "pfct_nm": "동천마을주공6단지아파트 609동앞놀이시설",
      "facility_id": "307",
      "addr": "광주광역시 서구 하남대로710번길 5(동천동, 광주동림2휴먼시아6단지)",
      "lat": "35.169496474975"
    },
    {
      "lot": "126.89330418960213",
      "instl_place_cd_nm": "주택단지",
      "zip": "61059",
      "pfct_nm": "매곡동_아남아파트",
      "facility_id": "308",
      "addr": "광주광역시 북구 매곡로 92 (매곡동, 매곡동 아남아파트)",
      "lat": "35.193142241213316"
    },
    {
      "lot": "126.92609169415141",
      "instl_place_cd_nm": "주택단지",
      "zip": "61128",
      "pfct_nm": "문흥동중흥파크1단지아파트 103동뒤놀이터",
      "facility_id": "309",
      "addr": "광주광역시 북구 서하로 417 (문흥동, 중흥아파트)",
      "lat": "35.18480662104415"
    },
    {
      "lot": "126.8961404271272",
      "instl_place_cd_nm": "주택단지",
      "zip": "61036",
      "pfct_nm": "일곡동한국아파트 놀이시설",
      "facility_id": "310",
      "addr": "광주광역시 북구 설죽로 565 (일곡동, 한국아파트)",
      "lat": "35.2099177584522"
    },
    {
      "lot": "126.8882825979103",
      "instl_place_cd_nm": "주택단지",
      "zip": "61108",
      "pfct_nm": "용봉중흥아파트 103동옆놀이시설",
      "facility_id": "311",
      "addr": "광주광역시 북구 비엔날레로 107 (용봉동, 중흥아파트)",
      "lat": "35.18177050014163"
    },
    {
      "lot": "126.87521106005255",
      "instl_place_cd_nm": "주택단지",
      "zip": "61083",
      "pfct_nm": "양산동_한양아파트",
      "facility_id": "312",
      "addr": "광주광역시 북구 양산신촌길 1(양산동, 한양아파트)",
      "lat": "35.19798437191944"
    },
    {
      "lot": "126.91571995321408",
      "instl_place_cd_nm": "주택단지",
      "zip": "61174",
      "pfct_nm": "문흥동우산주공1단지아파트(놀이터 1)",
      "facility_id": "313",
      "addr": "광주광역시 북구 면앙로31번길 7 (문흥동)",
      "lat": "35.18011505029033"
    },
    {
      "lot": "126.91502691378531",
      "instl_place_cd_nm": "주택단지",
      "zip": "61174",
      "pfct_nm": "문흥동우산주공1단지아파트(놀이터 2)",
      "facility_id": "314",
      "addr": "광주광역시 북구 면앙로31번길 7 (문흥동)",
      "lat": "35.18145871352393"
    },
    {
      "lot": "126.89942132666023",
      "instl_place_cd_nm": "주택단지",
      "zip": "61031",
      "pfct_nm": "일곡동_동아아파트(놀이터 2-1)102동 앞",
      "facility_id": "315",
      "addr": "광주광역시 북구 우치로537번길 10 (일곡동, 동아아파트)",
      "lat": "35.213341157123764"
    },
    {
      "lot": "126.90085231239162",
      "instl_place_cd_nm": "주택단지",
      "zip": "61031",
      "pfct_nm": "일곡동_동아아파트(놀이터2-2)",
      "facility_id": "316",
      "addr": "광주광역시 북구 우치로537번길 10 (일곡동, 동아아파트)",
      "lat": "35.214089332196274"
    },
    {
      "lot": "126.90645401579336",
      "instl_place_cd_nm": "주택단지",
      "zip": "61081",
      "pfct_nm": "새한아파트 놀이시설",
      "facility_id": "317",
      "addr": "광주광역시 북구 양산제로 50 (연제동, 새한아파트)",
      "lat": "35.18982148083983"
    },
    {
      "lot": "126.89473260693339",
      "instl_place_cd_nm": "주택단지",
      "zip": "61059",
      "pfct_nm": "매곡동_공간아파트",
      "facility_id": "318",
      "addr": "광주광역시 북구 매곡로 54 (매곡동, 공간아파트)",
      "lat": "35.19024338346908"
    },
    {
      "lot": "126.89417180852882",
      "instl_place_cd_nm": "주택단지",
      "zip": "61059",
      "pfct_nm": "매곡동호반2차아파트",
      "facility_id": "319",
      "addr": "광주광역시 북구 매곡로 64 (매곡동)",
      "lat": "35.19088285646829"
    },
    {
      "lot": "126.89480433983192",
      "instl_place_cd_nm": "주택단지",
      "zip": "61038",
      "pfct_nm": "일곡동_대우아파트",
      "facility_id": "320",
      "addr": "광주광역시 북구 일곡택지로 50 (일곡동, 대우아파트)",
      "lat": "35.20593037587519"
    },
    {
      "lot": "126.89846122943943",
      "instl_place_cd_nm": "주택단지",
      "zip": "61037",
      "pfct_nm": "일곡동_금호타운아파트(놀이터 1)",
      "facility_id": "321",
      "addr": "광주광역시 북구 설죽로 560 (일곡동, 금호타운)",
      "lat": "35.20820265167395"
    },
    {
      "lot": "126.9000819338692",
      "instl_place_cd_nm": "주택단지",
      "zip": "61051",
      "pfct_nm": "삼익아파트 놀이터",
      "facility_id": "322",
      "addr": "광주광역시 북구 설죽로370번길 15 (삼각동)",
      "lat": "35.19407641767306"
    },
    {
      "lot": "126.87121986358963",
      "instl_place_cd_nm": "주택단지",
      "zip": "61267",
      "pfct_nm": "운암동_일신2차아파트(놀이터 1)102동 앞",
      "facility_id": "323",
      "addr": "광주광역시 북구 북문대로159번길 39 (운암동, 일신아파트)",
      "lat": "35.18124542113569"
    },
    {
      "lot": "126.85736563304164",
      "instl_place_cd_nm": "주택단지",
      "zip": "61902",
      "pfct_nm": "동천마을주공1단지아파트 111동옆놀이시설",
      "facility_id": "324",
      "addr": "광주광역시 서구 동천로 25(동천동, 동천마을주공1단지)",
      "lat": "35.17061417461076"
    },
    {
      "lot": "126.87246029941846",
      "instl_place_cd_nm": "주택단지",
      "zip": "61074",
      "pfct_nm": "양산동_동남3차아파트",
      "facility_id": "325",
      "addr": "광주광역시 북구 효열로35번길 35 (양산동, 양산동 동남아파트)",
      "lat": "35.20943882135899"
    },
    {
      "lot": "126.8923923239852",
      "instl_place_cd_nm": "주택단지",
      "zip": "61061",
      "pfct_nm": "매곡동_삼익아파트",
      "facility_id": "326",
      "addr": "광주광역시 북구 매곡로 37 (매곡동, 매곡동 삼익아파트)",
      "lat": "35.18832482118713"
    },
    {
      "lot": "126.92287021301263",
      "instl_place_cd_nm": "주택단지",
      "zip": "61129",
      "pfct_nm": "문흥동_우미1차아파트(101동 앞)",
      "facility_id": "327",
      "addr": "광주광역시 북구 대천로 160 (문흥동, 우미아파트)",
      "lat": "35.18823990319598"
    },
    {
      "lot": "126.8655119922668",
      "instl_place_cd_nm": "주택단지",
      "zip": "61269",
      "pfct_nm": "동림동_죽림마을주공아파트(102동 앞-바다놀이터)",
      "facility_id": "328",
      "addr": "광주광역시 북구 유림로160번길 5 (동림동, 죽림마을주공아파트)",
      "lat": "35.17717512215055"
    },
    {
      "lot": "126.88079564705457",
      "instl_place_cd_nm": "주택단지",
      "zip": "61022",
      "pfct_nm": "일신2차아파트(202동놀이터)",
      "facility_id": "329",
      "addr": "광주광역시 북구 상촌로43번길 30 (양산동, 일신 2차 아파트)",
      "lat": "35.21244205443898"
    },
    {
      "lot": "126.88103250984088",
      "instl_place_cd_nm": "주택단지",
      "zip": "61022",
      "pfct_nm": "일신2차아파트(203동놀이터)",
      "facility_id": "330",
      "addr": "광주광역시 북구 상촌로43번길 30 (양산동, 일신 2차 아파트)",
      "lat": "35.21288056939646"
    },
    {
      "lot": "126.86897820383714",
      "instl_place_cd_nm": "주택단지",
      "zip": "61267",
      "pfct_nm": "운암동_나산건강아파트(105동)",
      "facility_id": "331",
      "addr": "광주광역시 북구 북문대로169번길 20 (운암동, 나산건강아파트)",
      "lat": "35.18336570925349"
    },
    {
      "lot": "126.86900289159809",
      "instl_place_cd_nm": "주택단지",
      "zip": "61267",
      "pfct_nm": "운암동_나산건강아파트(104동)",
      "facility_id": "332",
      "addr": "광주광역시 북구 북문대로169번길 20 (운암동, 나산건강아파트)",
      "lat": "35.182519588554285"
    },
    {
      "lot": "126.89603149074803",
      "instl_place_cd_nm": "주택단지",
      "zip": "61036",
      "pfct_nm": "일곡동호반일신아파트 어린이놀이시설",
      "facility_id": "333",
      "addr": "광주광역시 북구 설죽로 545(일곡동, 일곡동 호반일신아파트)",
      "lat": "35.208144255237364"
    },
    {
      "lot": "126.8994456868622",
      "instl_place_cd_nm": "주택단지",
      "zip": "61055",
      "pfct_nm": "오치동_대웅아파트",
      "facility_id": "334",
      "addr": "광주광역시 북구 설죽로 324 (오치동)",
      "lat": "35.188010901676634"
    },
    {
      "lot": "126.88714260139533",
      "instl_place_cd_nm": "주택단지",
      "zip": "61108",
      "pfct_nm": "용봉동_대주2차아파트",
      "facility_id": "335",
      "addr": "광주광역시 북구 용봉택지로13번길 11 (용봉동)",
      "lat": "35.17948788598694"
    },
    {
      "lot": "126.89444940888677",
      "instl_place_cd_nm": "주택단지",
      "zip": "61040",
      "pfct_nm": "일곡동_대림1차아파트(놀이터 1)",
      "facility_id": "336",
      "addr": "광주광역시 북구 양일로305번길 11 (일곡동, 대림1차아파트)",
      "lat": "35.203338678654106"
    },
    {
      "lot": "126.89586573114212",
      "instl_place_cd_nm": "주택단지",
      "zip": "61040",
      "pfct_nm": "일곡동_대림1차아파트(놀이터 2)",
      "facility_id": "337",
      "addr": "광주광역시 북구 양일로305번길 11 (일곡동, 대림1차아파트)",
      "lat": "35.20357200325102"
    },
    {
      "lot": "126.87260213509842",
      "instl_place_cd_nm": "주택단지",
      "zip": "61081",
      "pfct_nm": "연제한국아델리움 202동 앞",
      "facility_id": "338",
      "addr": "광주광역시 북구 양산제로 30 (연제동, 한국아델리움)",
      "lat": "35.20036911424468"
    },
    {
      "lot": "126.87164129392902",
      "instl_place_cd_nm": "주택단지",
      "zip": "61081",
      "pfct_nm": "연제한국아델리움(놀이터 2)",
      "facility_id": "339",
      "addr": "광주광역시 북구 양산제로 30 (연제동, 한국아델리움)",
      "lat": "35.201235651634796"
    },
    {
      "lot": "126.90110284451441",
      "instl_place_cd_nm": "주택단지",
      "zip": "61052",
      "pfct_nm": "오치동_대광원룸아파트(101동뒤)",
      "facility_id": "340",
      "addr": "광주광역시 북구 설죽로336번길 17 (오치동)",
      "lat": "35.18975864128353"
    },
    {
      "lot": "126.92420576749011",
      "instl_place_cd_nm": "주택단지",
      "zip": "61128",
      "pfct_nm": "문흥동_모아아파트",
      "facility_id": "341",
      "addr": "광주광역시 북구 문산로 40 (문흥동, 모아아파트)",
      "lat": "35.185100649506545"
    },
    {
      "lot": "126.87997369039432",
      "instl_place_cd_nm": "주택단지",
      "zip": "61099",
      "pfct_nm": "운암동_유탑하늘세움아파트",
      "facility_id": "342",
      "addr": "광주광역시 북구 하서로 71 (운암동, 유탑하늘세움아파트)",
      "lat": "35.18325880169877"
    },
    {
      "lot": "126.88739231460919",
      "instl_place_cd_nm": "주택단지",
      "zip": "61115",
      "pfct_nm": "운암동중흥2차아파트 어린이놀이시설",
      "facility_id": "343",
      "addr": "광주광역시 북구 금호로86번길 20 (운암동, 중흥아파트)",
      "lat": "35.17852479394005"
    },
    {
      "lot": "126.90190796381452",
      "instl_place_cd_nm": "주택단지",
      "zip": "61183",
      "pfct_nm": "용봉호반아파트 어린이놀이시설",
      "facility_id": "344",
      "addr": "광주광역시 북구 반룡로 32(용봉동, 용봉동 호반아파트)",
      "lat": "35.17876839150048"
    },
    {
      "lot": "126.88802307870574",
      "instl_place_cd_nm": "주택단지",
      "zip": "61115",
      "pfct_nm": "용봉동_한신아파트어린이놀이시설",
      "facility_id": "345",
      "addr": "광주광역시 북구 용봉택지로 16 (용봉동, 용봉동 한신아파트)",
      "lat": "35.17787640213154"
    },
    {
      "lot": "126.87133160511291",
      "instl_place_cd_nm": "주택단지",
      "zip": "61074",
      "pfct_nm": "양산동영무예다음아파트",
      "facility_id": "346",
      "addr": "광주광역시 북구 효열로29번길 37 (양산동)",
      "lat": "35.20960099714912"
    },
    {
      "lot": "126.92358545544097",
      "instl_place_cd_nm": "주택단지",
      "zip": "61129",
      "pfct_nm": "문흥동공간아파트 어린이놀이시설",
      "facility_id": "347",
      "addr": "광주광역시 북구 문산로 65 (문흥동, 문흥동 공간아파트)",
      "lat": "35.18802515803488"
    },
    {
      "lot": "126.88388971492218",
      "instl_place_cd_nm": "주택단지",
      "zip": "61025",
      "pfct_nm": "GS그린자이1차아파트 제2놀이터(106동)",
      "facility_id": "348",
      "addr": "광주광역시 북구 양산로71번길 10 (양산동, 지에스그린자이1차아파트)",
      "lat": "35.20978044108438"
    },
    {
      "lot": "126.89238581724247",
      "instl_place_cd_nm": "주택단지",
      "zip": "61222",
      "pfct_nm": "신안동중흥파크아파트",
      "facility_id": "349",
      "addr": "광주광역시 북구 서암대로 66 (신안동)",
      "lat": "35.17139622037165"
    },
    {
      "lot": "126.89598278904428",
      "instl_place_cd_nm": "주택단지",
      "zip": "61112",
      "pfct_nm": "신안동남양파크아파트",
      "facility_id": "350",
      "addr": "광주광역시 북구 설죽로 143 (신안동, 신안동 남양파크맨션)",
      "lat": "35.172042706230194"
    },
    {
      "lot": "126.90493109433869",
      "instl_place_cd_nm": "주택단지",
      "zip": "61183",
      "pfct_nm": "유창하이리빙2차아파트 놀이시설",
      "facility_id": "351",
      "addr": "광주광역시 북구 반룡로 58 (용봉동)",
      "lat": "35.17877192869898"
    },
    {
      "lot": "126.87695148447348",
      "instl_place_cd_nm": "주택단지",
      "zip": "61023",
      "pfct_nm": "양산동_동남2차아파트(놀이터)",
      "facility_id": "352",
      "addr": "광주광역시 북구 상촌로15번길 2 (양산동, 양산동 동남맨션)",
      "lat": "35.21256890458611"
    },
    {
      "lot": "126.93520704376878",
      "instl_place_cd_nm": "주택단지",
      "zip": "61153",
      "pfct_nm": "두암동_미라보4차아파트(2동옆)",
      "facility_id": "353",
      "addr": "광주광역시 북구 월동로 42 (두암동, 미라보아파트)",
      "lat": "35.17445074721428"
    },
    {
      "lot": "126.8935290687935",
      "instl_place_cd_nm": "주택단지",
      "zip": "61059",
      "pfct_nm": "매곡동서강아파트",
      "facility_id": "354",
      "addr": "광주광역시 북구 어매마을길17번길 16 (매곡동, 매곡동 서강아파트)",
      "lat": "35.19225460520203"
    },
    {
      "lot": "126.90547018072908",
      "instl_place_cd_nm": "주택단지",
      "zip": "61219",
      "pfct_nm": "중흥동모아타운아파트 102동앞놀이시설",
      "facility_id": "355",
      "addr": "광주광역시 북구 서양로 46 (중흥동，모아타운)",
      "lat": "35.16947823201418"
    },
    {
      "lot": "126.90717209794883",
      "instl_place_cd_nm": "주택단지",
      "zip": "61219",
      "pfct_nm": "중흥동모아타운아파트 107동앞놀이시설",
      "facility_id": "356",
      "addr": "광주광역시 북구 서양로 46 (중흥동，모아타운)",
      "lat": "35.16905365653417"
    },
    {
      "lot": "126.89449753170037",
      "instl_place_cd_nm": "주택단지",
      "zip": "61248",
      "pfct_nm": "일신사원아파트 놀이터",
      "facility_id": "357",
      "addr": "광주광역시 북구 서림로 61 (임동, 일신사원아파트)",
      "lat": "35.16611161433726"
    },
    {
      "lot": "126.8750518304412",
      "instl_place_cd_nm": "주택단지",
      "zip": "61091",
      "pfct_nm": "양산동_금광아파트",
      "facility_id": "358",
      "addr": "광주광역시 북구 하서로241번길 13 (양산동, 양산동 금광아파트)",
      "lat": "35.197092994637316"
    },
    {
      "lot": "126.91975486184181",
      "instl_place_cd_nm": "주택단지",
      "zip": "61133",
      "pfct_nm": "문흥광명아파트 105동앞놀이터",
      "facility_id": "359",
      "addr": "광주광역시 북구 천지인로173번길 22 (문흥동, 광명아파트)",
      "lat": "35.185358048797575"
    },
    {
      "lot": "126.93679670653874",
      "instl_place_cd_nm": "주택단지",
      "zip": "61161",
      "pfct_nm": "두암동_율곡타운아파트(109동뒤)",
      "facility_id": "360",
      "addr": "광주광역시 북구 삼정로 7 (두암동)",
      "lat": "35.16297729774911"
    },
    {
      "lot": "126.9258038565959",
      "instl_place_cd_nm": "주택단지",
      "zip": "61169",
      "pfct_nm": "문흥동대주2차아파트303동옆놀이터",
      "facility_id": "361",
      "addr": "광주광역시 북구 평교로 45 (문흥동, 대주2차아파트)",
      "lat": "35.180870318119645"
    },
    {
      "lot": "126.87775726106662",
      "instl_place_cd_nm": "주택단지",
      "zip": "61101",
      "pfct_nm": "우성아파트 어린이놀이시설",
      "facility_id": "362",
      "addr": "광주광역시 북구 서강로 160 (운암동, 우성아파트)",
      "lat": "35.185141544346855"
    },
    {
      "lot": "126.92378270565051",
      "instl_place_cd_nm": "주택단지",
      "zip": "61134",
      "pfct_nm": "문흥동_중흥파크맨션2단지아파트",
      "facility_id": "363",
      "addr": "광주광역시 북구 문산로 30 (문흥동, 중흥아파트)",
      "lat": "35.18402326394536"
    },
    {
      "lot": "126.90079463168146",
      "instl_place_cd_nm": "주택단지",
      "zip": "61055",
      "pfct_nm": "오치동_삼익1차아파트",
      "facility_id": "364",
      "addr": "광주광역시 북구 설죽로320번길 25 (오치동, 삼익1차아파트)",
      "lat": "35.189271657624765"
    },
    {
      "lot": "126.90287074297227",
      "instl_place_cd_nm": "주택단지",
      "zip": "61053",
      "pfct_nm": "오치동_로얄타운아파트",
      "facility_id": "365",
      "addr": "광주광역시 북구 우치로331번길 13 (오치동, 로얄타운)",
      "lat": "35.19308156342805"
    },
    {
      "lot": "126.92532594174578",
      "instl_place_cd_nm": "주택단지",
      "zip": "61128",
      "pfct_nm": "문흥동_해광한신아파트",
      "facility_id": "366",
      "addr": "광주광역시 북구 문산로 58 (문흥동, 해광,한신 무지개아파트)",
      "lat": "35.18626634737697"
    },
    {
      "lot": "126.87055965497461",
      "instl_place_cd_nm": "주택단지",
      "zip": "61075",
      "pfct_nm": "연제동광명그린파크맨션",
      "facility_id": "367",
      "addr": "광주광역시 북구 효열로 7 (연제동, 광명그린파크맨션)",
      "lat": "35.207281447264315"
    },
    {
      "lot": "126.92001425105332",
      "instl_place_cd_nm": "주택단지",
      "zip": "61133",
      "pfct_nm": "문흥동_라인3차아파트",
      "facility_id": "368",
      "addr": "광주광역시 북구 문산로 7 (문흥동, 문흥3차 라인아파트)",
      "lat": "35.18254937045029"
    },
    {
      "lot": "126.89304768992135",
      "instl_place_cd_nm": "주택단지",
      "zip": "61060",
      "pfct_nm": "카이스트3차아파트 놀이시설",
      "facility_id": "369",
      "addr": "광주광역시 북구 초당로 7 (매곡동)",
      "lat": "35.194065902912186"
    },
    {
      "lot": "126.93818609076865",
      "instl_place_cd_nm": "주택단지",
      "zip": "61159",
      "pfct_nm": "두암동 주공3단지아파트(303동놀이터)",
      "facility_id": "370",
      "addr": "광주광역시 북구 삼정로 50 (두암동)",
      "lat": "35.16722228741052"
    },
    {
      "lot": "126.908138",
      "instl_place_cd_nm": "주택단지",
      "zip": "61121",
      "pfct_nm": "오치금호타운아파트 101동옆 놀이시설",
      "facility_id": "371",
      "addr": "광주광역시 북구 서하로233번길 60 (오치동, 오치동 금호타운)",
      "lat": "35.189126"
    },
    {
      "lot": "126.87049280018263",
      "instl_place_cd_nm": "주택단지",
      "zip": "61997",
      "pfct_nm": "빛고을파크아파트놀이터(쌍촌시영1단지)",
      "facility_id": "372",
      "addr": "광주광역시 서구 화정로 105(쌍촌동, 시영아파트)",
      "lat": "35.14559028968526"
    },
    {
      "lot": "126.8801389749459",
      "instl_place_cd_nm": "주택단지",
      "zip": "62067",
      "pfct_nm": "현대삼환아파트 놀이시설",
      "facility_id": "373",
      "addr": "광주광역시 서구 풍암1로 53(풍암동, 현대삼환아파트)",
      "lat": "35.12204534988138"
    },
    {
      "lot": "126.86994345222031",
      "instl_place_cd_nm": "주택단지",
      "zip": "61091",
      "pfct_nm": "연제동_대주피오레2차아파트",
      "facility_id": "374",
      "addr": "광주광역시 북구 양일로 52 (연제동, 2차대주피오레아파트)",
      "lat": "35.196198547912225"
    },
    {
      "lot": "126.87032026437578",
      "instl_place_cd_nm": "주택단지",
      "zip": "61078",
      "pfct_nm": "연제동_연제주공아파트(유아놀이터)",
      "facility_id": "375",
      "addr": "광주광역시 북구 양산제로 110 (연제동, 주공아파트)",
      "lat": "35.20243416981144"
    },
    {
      "lot": "126.85498322029851",
      "instl_place_cd_nm": "주택단지",
      "zip": "62019",
      "pfct_nm": "금호2차호반리젠시빌아파트 놀이시설",
      "facility_id": "376",
      "addr": "광주광역시 서구 화개1로 33(금호동, 호반리젠시빌아파트)",
      "lat": "35.12752294407934"
    },
    {
      "lot": "126.85984338922714",
      "instl_place_cd_nm": "주택단지",
      "zip": "61941",
      "pfct_nm": "상무우미아트빌아파트 203동뒤놀이터",
      "facility_id": "377",
      "addr": "광주광역시 서구 상무민주로 120(쌍촌동, 우미 아트빌)",
      "lat": "35.16041256853515"
    },
    {
      "lot": "126.8618987159187",
      "instl_place_cd_nm": "주택단지",
      "zip": "61941",
      "pfct_nm": "상무우미아트빌아파트 206동앞놀이시설",
      "facility_id": "378",
      "addr": "광주광역시 서구 상무민주로 120(쌍촌동, 우미 아트빌)",
      "lat": "35.161157422980956"
    },
    {
      "lot": "126.85867088158905",
      "instl_place_cd_nm": "주택단지",
      "zip": "61991",
      "pfct_nm": "쌍촌명지아파트 101동앞놀이터",
      "facility_id": "379",
      "addr": "광주광역시 서구 운천로154번길 12(쌍촌동, 명지아파트)",
      "lat": "35.14582720593105"
    },
    {
      "lot": "126.88237896671741",
      "instl_place_cd_nm": "주택단지",
      "zip": "62062",
      "pfct_nm": "풍암금호타운1차아파트 놀이시설",
      "facility_id": "380",
      "addr": "광주광역시 서구 풍암중앙로 68(풍암동, 금호타운)",
      "lat": "35.12448122828748"
    },
    {
      "lot": "126.87429828328577",
      "instl_place_cd_nm": "주택단지",
      "zip": "62030",
      "pfct_nm": "럭키염주아파트 어린이놀이시설",
      "facility_id": "381",
      "addr": "광주광역시 서구 염화로40번길 20(화정동, 럭키아파트)",
      "lat": "35.13735021792289"
    },
    {
      "lot": "126.87832244770271",
      "instl_place_cd_nm": "주택단지",
      "zip": "62043",
      "pfct_nm": "화정 염주우미 놀이터",
      "facility_id": "382",
      "addr": "광주광역시 서구 월드컵4강로28번길 14(화정동, 우미아파트)",
      "lat": "35.13923817211049"
    },
    {
      "lot": "126.8534143",
      "instl_place_cd_nm": "어린이집",
      "zip": "62012",
      "pfct_nm": "하버드어린이집 놀이시설",
      "facility_id": "383",
      "addr": "광주광역시 서구 화개중앙로86번길 3",
      "lat": "35.1266798"
    },
    {
      "lot": "126.92030253858418",
      "instl_place_cd_nm": "주택단지",
      "zip": "61682",
      "pfct_nm": "모아엘가아파트 103동아파트 피로티하부놀이터",
      "facility_id": "384",
      "addr": "광주광역시 남구 용대로74번길 8 (봉선동, 모아엘가아파트)",
      "lat": "35.1219567275863"
    },
    {
      "lot": "126.9069291444705",
      "instl_place_cd_nm": "주택단지",
      "zip": "61746",
      "pfct_nm": "송화마을휴먼시아5단지아파트 501동옆놀이시설",
      "facility_id": "385",
      "addr": "광주광역시 남구 노대실로 33 (노대동, 송화마을휴먼시아5단지아파트)",
      "lat": "35.106463981231336"
    },
    {
      "lot": "126.89443501861237",
      "instl_place_cd_nm": "주택단지",
      "zip": "61737",
      "pfct_nm": "한국아델리움아파트 어린이놀이시설",
      "facility_id": "386",
      "addr": "광주광역시 남구 서문대로627번길 19 (진월동, 한국아델리움아파트)",
      "lat": "35.114648293904104"
    },
    {
      "lot": "126.91367743254898",
      "instl_place_cd_nm": "주택단지",
      "zip": "61707",
      "pfct_nm": "한국아델리움1단지아파트 어린이놀이시설",
      "facility_id": "387",
      "addr": "광주광역시 남구 제석로80번안길 11 (봉선동, 한국아델리움1단지아파트)",
      "lat": "35.119568079681095"
    },
    {
      "lot": "126.87793329212383",
      "instl_place_cd_nm": "주택단지",
      "zip": "61071",
      "pfct_nm": "청암아파트 103동뒤놀이시설",
      "facility_id": "388",
      "addr": "광주광역시 북구 자라봉로 33 (양산동，청암아파트)",
      "lat": "35.208752675249684"
    },
    {
      "lot": "126.87068614912869",
      "instl_place_cd_nm": "주택단지",
      "zip": "61078",
      "pfct_nm": "연제동_연제주공아파트(101동 앞 놀이터 1)",
      "facility_id": "389",
      "addr": "광주광역시 북구 양산제로 110 (연제동, 주공아파트)",
      "lat": "35.20282552274571"
    },
    {
      "lot": "126.86228614598697",
      "instl_place_cd_nm": "주택단지",
      "zip": "61912",
      "pfct_nm": "유촌 상무버들주공2차-4 놀이터",
      "facility_id": "390",
      "addr": "광주광역시 서구 상무버들로 15(유촌동, 버들주공2단지아파트)",
      "lat": "35.16409854565906"
    },
    {
      "lot": "126.86233357346234",
      "instl_place_cd_nm": "주택단지",
      "zip": "61912",
      "pfct_nm": "유촌 상무버들주공2차-2 놀이터",
      "facility_id": "391",
      "addr": "광주광역시 서구 상무버들로 15(유촌동, 버들주공2단지아파트)",
      "lat": "35.163636653494386"
    },
    {
      "lot": "126.86109161233945",
      "instl_place_cd_nm": "주택단지",
      "zip": "61912",
      "pfct_nm": "유촌 상무버들주공2차-3 놀이터",
      "facility_id": "392",
      "addr": "광주광역시 서구 상무버들로 15(유촌동, 버들주공2단지아파트)",
      "lat": "35.16299301808527"
    },
    {
      "lot": "126.86115083580843",
      "instl_place_cd_nm": "주택단지",
      "zip": "61912",
      "pfct_nm": "유촌 상무버들주공2차-1 놀이터(209동 옆)",
      "facility_id": "393",
      "addr": "광주광역시 서구 상무버들로 15(유촌동, 버들주공2단지아파트)",
      "lat": "35.16366685126463"
    },
    {
      "lot": "126.89498026895332",
      "instl_place_cd_nm": "주택단지",
      "zip": "61619",
      "pfct_nm": "월산제일파크맨션아파트 놀이시설",
      "facility_id": "394",
      "addr": "광주광역시 남구 경열로76번길 33-5 (월산동, 제일파크맨션)",
      "lat": "35.14814343104356"
    },
    {
      "lot": "126.8994240476509",
      "instl_place_cd_nm": "주택단지",
      "zip": "61709",
      "pfct_nm": "대주2차아파트 어린이놀이시설",
      "facility_id": "395",
      "addr": "광주광역시 남구 서문대로690번길 3 (진월동, 대주2차아파트)",
      "lat": "35.1219817631138"
    },
    {
      "lot": "126.9192215328586",
      "instl_place_cd_nm": "주택단지",
      "zip": "61681",
      "pfct_nm": "명지아파트 어린이놀이시설",
      "facility_id": "396",
      "addr": "광주광역시 남구 용대로 128 (봉선동, 명지아파트)",
      "lat": "35.12791741187139"
    },
    {
      "lot": "126.90820376441677",
      "instl_place_cd_nm": "주택단지",
      "zip": "61711",
      "pfct_nm": "진아리채아파트 어린이놀이시설",
      "facility_id": "397",
      "addr": "광주광역시 남구 화산로 115 (진월동, 진아리채3차아파트)",
      "lat": "35.11544481735799"
    },
    {
      "lot": "126.88947732748457",
      "instl_place_cd_nm": "주택단지",
      "zip": "61064",
      "pfct_nm": "용봉동쌍용예가아파트 108동앞놀이터",
      "facility_id": "398",
      "addr": "광주광역시 북구 서하로94번길 10 (용봉동, 쌍용예가아파트)",
      "lat": "35.18624682624116"
    },
    {
      "lot": "126.92589764755897",
      "instl_place_cd_nm": "주택단지",
      "zip": "61126",
      "pfct_nm": "문흥동금호타운아파트 107동앞놀이터",
      "facility_id": "399",
      "addr": "광주광역시 북구 문산로 99 (문흥동, 금호타운)",
      "lat": "35.189937467552355"
    },
    {
      "lot": "126.86001175680073",
      "instl_place_cd_nm": "주택단지",
      "zip": "61902",
      "pfct_nm": "동천마을주공1단지아파트 116동옆놀이시설",
      "facility_id": "400",
      "addr": "광주광역시 서구 동천로 25(동천동, 동천마을주공1단지)",
      "lat": "35.17024545155358"
    },
    {
      "lot": "126.89909353996795",
      "instl_place_cd_nm": "주택단지",
      "zip": "61051",
      "pfct_nm": "삼각동_호반1차아파트",
      "facility_id": "401",
      "addr": "광주광역시 북구 설죽로370번길 7 (삼각동)",
      "lat": "35.19310100896588"
    },
    {
      "lot": "126.89637110608017",
      "instl_place_cd_nm": "주택단지",
      "zip": "61106",
      "pfct_nm": "용봉3차현대아파트 301동앞놀이시설",
      "facility_id": "402",
      "addr": "광주광역시 북구 저불로 80 (용봉동, 현대아파트)",
      "lat": "35.18069831676853"
    },
    {
      "lot": "126.89599131751187",
      "instl_place_cd_nm": "주택단지",
      "zip": "61106",
      "pfct_nm": "용봉3차현대아파트 303동앞놀이시설",
      "facility_id": "403",
      "addr": "광주광역시 북구 저불로 80 (용봉동, 현대아파트)",
      "lat": "35.18150695824232"
    },
    {
      "lot": "126.87030690122359",
      "instl_place_cd_nm": "주택단지",
      "zip": "61078",
      "pfct_nm": "연제동_연제주공아파트(103동 앞 놀이터 2)",
      "facility_id": "404",
      "addr": "광주광역시 북구 양산제로 110 (연제동, 주공아파트)",
      "lat": "35.20220543729014"
    },
    {
      "lot": "126.86545898880206",
      "instl_place_cd_nm": "주택단지",
      "zip": "61967",
      "pfct_nm": "쌍촌동현대아파트 102동앞놀이터",
      "facility_id": "405",
      "addr": "광주광역시 서구 내방로240번길 10(쌍촌동, 현대아파트)",
      "lat": "35.15700729102122"
    },
    {
      "lot": "126.86727297517831",
      "instl_place_cd_nm": "주택단지",
      "zip": "61967",
      "pfct_nm": "쌍촌동현대아파트 104동놀이터",
      "facility_id": "406",
      "addr": "광주광역시 서구 내방로240번길 10(쌍촌동, 현대아파트)",
      "lat": "35.156813246142555"
    },
    {
      "lot": "126.87678312212854",
      "instl_place_cd_nm": "주택단지",
      "zip": "62065",
      "pfct_nm": "풍암 한신 놀이터",
      "facility_id": "407",
      "addr": "광주광역시 서구 풍암순환로 38(풍암동, 한신아파트)",
      "lat": "35.1221862032925"
    },
    {
      "lot": "126.8810530493874",
      "instl_place_cd_nm": "주택단지",
      "zip": "62066",
      "pfct_nm": "풍암 삼능남양-1 놀이터",
      "facility_id": "408",
      "addr": "광주광역시 서구 풍암순환로 86(풍암동, 삼능·남양아파트)",
      "lat": "35.12057251896646"
    },
    {
      "lot": "126.87976142877339",
      "instl_place_cd_nm": "주택단지",
      "zip": "62066",
      "pfct_nm": "풍암 삼능남양-2 놀이터",
      "facility_id": "409",
      "addr": "광주광역시 서구 풍암순환로 86(풍암동, 삼능·남양아파트)",
      "lat": "35.12047209448402"
    },
    {
      "lot": "126.9071845",
      "instl_place_cd_nm": "주택단지",
      "zip": "61641",
      "pfct_nm": "대흥백운스카이2차아파트 어린이놀이터",
      "facility_id": "410",
      "addr": "광주광역시 남구 백운로66번길 9 (백운동, 대흥백운스카이아파트2차)",
      "lat": "35.1397082"
    },
    {
      "lot": "126.9083702",
      "instl_place_cd_nm": "주택단지",
      "zip": "61641",
      "pfct_nm": "대흥백운스카이1차아파트 102동뒤놀이터",
      "facility_id": "411",
      "addr": "광주광역시 남구 백운로82번길 10 (백운동, 대흥백운스카이아파트1차)",
      "lat": "35.1408362"
    },
    {
      "lot": "126.89318761047656",
      "instl_place_cd_nm": "주택단지",
      "zip": "61609",
      "pfct_nm": "해태아파트 어린이놀이시설",
      "facility_id": "412",
      "addr": "광주광역시 남구 회재로 1201 (주월동, 해태2차아파트)",
      "lat": "35.13325925100873"
    },
    {
      "lot": "126.90982951986118",
      "instl_place_cd_nm": "주택단지",
      "zip": "61642",
      "pfct_nm": "아남프라자아파트 어린이놀이시설",
      "facility_id": "413",
      "addr": "광주광역시 남구 제중로 93 (서동, 아남프라자아파트)",
      "lat": "35.140791266919784"
    },
    {
      "lot": "126.91352590473655",
      "instl_place_cd_nm": "주택단지",
      "zip": "61685",
      "pfct_nm": "삼익1차아파트 어린이놀이시설",
      "facility_id": "414",
      "addr": "광주광역시 남구 봉선중앙로 46 (봉선동, 삼익1차아파트)",
      "lat": "35.12540768940967"
    },
    {
      "lot": "126.90041713427853",
      "instl_place_cd_nm": "주택단지",
      "zip": "61710",
      "pfct_nm": "삼익세라믹아파트 어린이놀이시설",
      "facility_id": "415",
      "addr": "광주광역시 남구 서문대로 660 (진월동, 삼익세라믹아파트)",
      "lat": "35.11839965675058"
    },
    {
      "lot": "126.89167327441469",
      "instl_place_cd_nm": "주택단지",
      "zip": "61609",
      "pfct_nm": "해태1차아파트 어린이놀이시설",
      "facility_id": "416",
      "addr": "광주광역시 남구 회재로1173번길 40 (주월동, 해태아파트)",
      "lat": "35.134431932214625"
    },
    {
      "lot": "126.89922097297031",
      "instl_place_cd_nm": "주택단지",
      "zip": "61713",
      "pfct_nm": "진월동 현대아파트 어린이놀이시설",
      "facility_id": "417",
      "addr": "광주광역시 남구 서문대로622번길 7 (진월동, 현대아파트)",
      "lat": "35.116510307434375"
    },
    {
      "lot": "126.9077062282694",
      "instl_place_cd_nm": "주택단지",
      "zip": "61696",
      "pfct_nm": "라인아파트 어린이놀이시설",
      "facility_id": "418",
      "addr": "광주광역시 남구 봉선로 91 (봉선동, 라인아파트)",
      "lat": "35.12619547159121"
    },
    {
      "lot": "126.89839689198004",
      "instl_place_cd_nm": "주택단지",
      "zip": "61037",
      "pfct_nm": "일곡동_현대1차아파트(103동뒤)",
      "facility_id": "419",
      "addr": "광주광역시 북구 일곡로 100 (일곡동, 현대1차아파트)",
      "lat": "35.20822372581904"
    },
    {
      "lot": "126.8739904948777",
      "instl_place_cd_nm": "주택단지",
      "zip": "61091",
      "pfct_nm": "양산동_양산주공아파트(101동앞)",
      "facility_id": "420",
      "addr": "광주광역시 북구 하서로229번길 57 (양산동, 양산주공아파트)",
      "lat": "35.197000952829136"
    },
    {
      "lot": "126.87257426543422",
      "instl_place_cd_nm": "주택단지",
      "zip": "61091",
      "pfct_nm": "양산동_양산주공아파트(104동앞)",
      "facility_id": "421",
      "addr": "광주광역시 북구 하서로229번길 57 (양산동, 양산주공아파트)",
      "lat": "35.196214875580104"
    },
    {
      "lot": "126.8622",
      "instl_place_cd_nm": "주택단지",
      "zip": "61941",
      "pfct_nm": "상무모아제일아파트 놀이시설",
      "facility_id": "422",
      "addr": "광주광역시 서구 상일로 37(쌍촌동, 모아제일아파트)",
      "lat": "35.1588321"
    },
    {
      "lot": "126.90185175457896",
      "instl_place_cd_nm": "주택단지",
      "zip": "61697",
      "pfct_nm": "신영루체빌아파트 어린이놀이시설",
      "facility_id": "423",
      "addr": "광주 남구 봉선로52번길 49 (주월동, 신영루체빌)",
      "lat": "35.129508468592235"
    },
    {
      "lot": "126.87190833053424",
      "instl_place_cd_nm": "주택단지",
      "zip": "62028",
      "pfct_nm": "화정4 모아 놀이터",
      "facility_id": "424",
      "addr": "광주광역시 서구 염화로57번길 4(화정동, 모아타워)",
      "lat": "35.140393192335964"
    },
    {
      "lot": "126.91632865497618",
      "instl_place_cd_nm": "주택단지",
      "zip": "61674",
      "pfct_nm": "모아2단지1차아파트 어린이놀이시설",
      "facility_id": "425",
      "addr": "광주광역시 남구 봉선1로 86 (봉선동, 모아맨션2단지1차아파트)",
      "lat": "35.1271019681671"
    },
    {
      "lot": "126.87229856567856",
      "instl_place_cd_nm": "도시공원",
      "zip": "61976",
      "pfct_nm": "내방어린이공원 놀이터",
      "facility_id": "426",
      "addr": "광주광역시 서구 상무대로1005번길 12-5",
      "lat": "35.15312307284775"
    },
    {
      "lot": "126.85989013633116",
      "instl_place_cd_nm": "도시공원",
      "zip": "61970",
      "pfct_nm": "쌍촌어린이공원 놀이터",
      "facility_id": "427",
      "addr": "광주광역시 서구 상무민주로6번길 17",
      "lat": "35.1515522604441"
    },
    {
      "lot": "126.88726820199935",
      "instl_place_cd_nm": "도시공원",
      "zip": "62047",
      "pfct_nm": "농성어린이공원 놀이터",
      "facility_id": "428",
      "addr": "광주광역시 서구 화정로276번길 5",
      "lat": "35.14814100839338"
    },
    {
      "lot": "126.90077244080317",
      "instl_place_cd_nm": "주택단지",
      "zip": "61037",
      "pfct_nm": "일곡동_현대3차아파트",
      "facility_id": "429",
      "addr": "광주광역시 북구 일곡로 120 (일곡동, 일곡3차 현대아파트)",
      "lat": "35.2097774268096"
    },
    {
      "lot": "126.9047366",
      "instl_place_cd_nm": "어린이집",
      "zip": "61645",
      "pfct_nm": "세종어린이집 놀이터",
      "facility_id": "430",
      "addr": "광주광역시 남구 중앙로50번안길 9 (서동)",
      "lat": "35.1432299"
    },
    {
      "lot": "126.8882353",
      "instl_place_cd_nm": "목욕장업소",
      "zip": "61114",
      "pfct_nm": "현대웰빙랜드놀이시설",
      "facility_id": "431",
      "addr": "광주광역시 북구 비엔날레로 40 (운암동)",
      "lat": "35.1755222"
    },
    {
      "lot": "126.8242588",
      "instl_place_cd_nm": "어린이집",
      "zip": "62317",
      "pfct_nm": "은송어린이집 놀이터",
      "facility_id": "432",
      "addr": "광주광역시 광산구 목련로219번길 102-36 (운남동)은송어린이집",
      "lat": "35.1747328"
    },
    {
      "lot": "126.87216830079822",
      "instl_place_cd_nm": "주택단지",
      "zip": "61258",
      "pfct_nm": "운암동_롯데캐슬아파트(놀이터 3(204동앞))",
      "facility_id": "433",
      "addr": "광주광역시 북구 서강로54번길 10 (운암동, 롯데캐슬)",
      "lat": "35.17588223025313"
    },
    {
      "lot": "126.93595249137134",
      "instl_place_cd_nm": "주택단지",
      "zip": "61161",
      "pfct_nm": "두암동_율곡타운아파트(105동)",
      "facility_id": "434",
      "addr": "광주광역시 북구 삼정로 7 (두암동)",
      "lat": "35.16351992316258"
    },
    {
      "lot": "126.93804544433114",
      "instl_place_cd_nm": "주택단지",
      "zip": "61159",
      "pfct_nm": "두암동_주공3단지아파트(305동옆)",
      "facility_id": "435",
      "addr": "광주광역시 북구 삼정로 50 (두암동)",
      "lat": "35.16632761729914"
    },
    {
      "lot": "126.93659338944141",
      "instl_place_cd_nm": "주택단지",
      "zip": "61153",
      "pfct_nm": "두암동_무등1차아파트(놀이터1)",
      "facility_id": "436",
      "addr": "광주광역시 북구 월동로 28 (두암동)",
      "lat": "35.17391629990526"
    },
    {
      "lot": "126.90127020681331",
      "instl_place_cd_nm": "주택단지",
      "zip": "61715",
      "pfct_nm": "진월삼익3차아파트 놀이시설",
      "facility_id": "437",
      "addr": "광주광역시 남구 화산로31번길 17 (진월동, 삼익세라믹아파트3차)",
      "lat": "35.11373353348894"
    },
    {
      "lot": "126.86929156846526",
      "instl_place_cd_nm": "주택단지",
      "zip": "62029",
      "pfct_nm": "화정라인동산아파트 101동옆 어린이놀이시설",
      "facility_id": "438",
      "addr": "광주광역시 서구 염화로45번길 17(화정동, 라인동산아파트)",
      "lat": "35.13847725750565"
    },
    {
      "lot": "126.8728372092127",
      "instl_place_cd_nm": "주택단지",
      "zip": "61974",
      "pfct_nm": "내방 주공-101동앞 놀이터",
      "facility_id": "439",
      "addr": "광주광역시 서구 화운로193번길 25(내방동, 내방마을주공아파트)",
      "lat": "35.15520352699314"
    },
    {
      "lot": "126.8721130669602",
      "instl_place_cd_nm": "주택단지",
      "zip": "61974",
      "pfct_nm": "내방 주공-103동앞 놀이터",
      "facility_id": "440",
      "addr": "광주광역시 서구 화운로193번길 25(내방동, 내방마을주공아파트)",
      "lat": "35.15506756087886"
    },
    {
      "lot": "126.8720325360252",
      "instl_place_cd_nm": "주택단지",
      "zip": "61974",
      "pfct_nm": "내방 주공-104동앞 놀이터",
      "facility_id": "441",
      "addr": "광주광역시 서구 화운로193번길 25(내방동, 내방마을주공아파트)",
      "lat": "35.153929509232924"
    },
    {
      "lot": "126.90028612056923",
      "instl_place_cd_nm": "주택단지",
      "zip": "61745",
      "pfct_nm": "송화마을휴먼시아1단지아파트 101동앞놀이시설",
      "facility_id": "442",
      "addr": "광주광역시 남구 효우로60번길 50 (노대동, 송화마을휴먼시아1단지아파트)",
      "lat": "35.110005578162124"
    },
    {
      "lot": "126.89710630261324",
      "instl_place_cd_nm": "주택단지",
      "zip": "61063",
      "pfct_nm": "용봉동_금호어울림아파트",
      "facility_id": "443",
      "addr": "광주광역시 북구 설죽로279번길 19 (용봉동)",
      "lat": "35.18534205218154"
    },
    {
      "lot": "126.89035344460298",
      "instl_place_cd_nm": "주택단지",
      "zip": "61109",
      "pfct_nm": "용봉동 아이파크아파트",
      "facility_id": "444",
      "addr": "광주광역시 북구 비엔날레로82번길 41 (용봉동, 아이파크)",
      "lat": "35.17972744109747"
    },
    {
      "lot": "126.93307034875045",
      "instl_place_cd_nm": "주택단지",
      "zip": "61139",
      "pfct_nm": "각화동금호타운아파트 2동앞놀이시설",
      "facility_id": "445",
      "addr": "광주광역시 북구 각화대로 33 (각화동, 각화금호타운아파트)",
      "lat": "35.18251456466661"
    },
    {
      "lot": "126.93528457185795",
      "instl_place_cd_nm": "주택단지",
      "zip": "61139",
      "pfct_nm": "각화동금호타운아파트 10동앞놀이시설",
      "facility_id": "446",
      "addr": "광주광역시 북구 각화대로 33 (각화동, 각화금호타운아파트)",
      "lat": "35.18213887807103"
    },
    {
      "lot": "126.90330942194016",
      "instl_place_cd_nm": "주택단지",
      "zip": "61712",
      "pfct_nm": "고운하이플러스 어린이놀이시설",
      "facility_id": "447",
      "addr": "광주광역시 남구 화산로73번길 3 (진월동, 고운하이플러스아파트)",
      "lat": "35.11351659587484"
    },
    {
      "lot": "126.89048391600066",
      "instl_place_cd_nm": "주택단지",
      "zip": "61729",
      "pfct_nm": "호반베르디움1차아파트102동 어린이놀이시설",
      "facility_id": "448",
      "addr": "광주광역시 남구 회재로1186번길 24 (주월동, 호반베르디움1차아파트)",
      "lat": "35.129486885801995"
    },
    {
      "lot": "126.86611260700862",
      "instl_place_cd_nm": "주택단지",
      "zip": "61269",
      "pfct_nm": "동림동_죽림마을주공아파트(104동 뒤-숲속놀이터)",
      "facility_id": "449",
      "addr": "광주광역시 북구 유림로160번길 5 (동림동, 죽림마을주공아파트)",
      "lat": "35.17807984663924"
    },
    {
      "lot": "126.86522249423854",
      "instl_place_cd_nm": "주택단지",
      "zip": "61269",
      "pfct_nm": "동림동_죽림마을주공아파트(관리사무소앞-유아놀이터)",
      "facility_id": "450",
      "addr": "광주광역시 북구 유림로160번길 5 (동림동, 죽림마을주공아파트)",
      "lat": "35.17703927123093"
    },
    {
      "lot": "126.86567382717004",
      "instl_place_cd_nm": "주택단지",
      "zip": "61269",
      "pfct_nm": "동림동_죽림마을주공아파트(102동 107동사이-우주놀이터)",
      "facility_id": "451",
      "addr": "광주광역시 북구 유림로160번길 5 (동림동, 죽림마을주공아파트)",
      "lat": "35.17671041464183"
    },
    {
      "lot": "126.85933723007541",
      "instl_place_cd_nm": "주택단지",
      "zip": "61902",
      "pfct_nm": "동천마을주공1단지아파트 104동앞놀이시설",
      "facility_id": "452",
      "addr": "광주광역시 서구 동천로 25(동천동, 동천마을주공1단지)",
      "lat": "35.17151107691505"
    },
    {
      "lot": "126.93635427792306",
      "instl_place_cd_nm": "주택단지",
      "zip": "61153",
      "pfct_nm": "두암동무등파크2차아파트",
      "facility_id": "453",
      "addr": "광주광역시 북구 월동로 50 (두암동, 무등파크2차아파트)",
      "lat": "35.176124499681684"
    },
    {
      "lot": "126.85886064678647",
      "instl_place_cd_nm": "주택단지",
      "zip": "61902",
      "pfct_nm": "동천마을주공1단지아파트 유아놀이시설",
      "facility_id": "454",
      "addr": "광주광역시 서구 동천로 25(동천동, 동천마을주공1단지)",
      "lat": "35.17097421513791"
    },
    {
      "lot": "126.92564581373071",
      "instl_place_cd_nm": "주택단지",
      "zip": "61128",
      "pfct_nm": "문흥동_명지아파트",
      "facility_id": "455",
      "addr": "광주광역시 북구 서하로 405 (문흥동, 문흥동 명지아파트)",
      "lat": "35.184648610890896"
    },
    {
      "lot": "126.85851503186463",
      "instl_place_cd_nm": "주택단지",
      "zip": "61902",
      "pfct_nm": "동천마을주공1단지아파트 106동뒤놀이시설",
      "facility_id": "456",
      "addr": "광주광역시 서구 동천로 25(동천동, 동천마을주공1단지)",
      "lat": "35.17167011026312"
    },
    {
      "lot": "126.91291169785632",
      "instl_place_cd_nm": "주택단지",
      "zip": "61704",
      "pfct_nm": "쌍용스윗닷홈아파트 101동 어린이놀이시설 1",
      "facility_id": "457",
      "addr": "광주광역시 남구 봉선중앙로 8 (봉선동, 쌍용스윗닷홈예가아파트)",
      "lat": "35.121379275956954"
    },
    {
      "lot": "126.86385561631964",
      "instl_place_cd_nm": "주택단지",
      "zip": "61265",
      "pfct_nm": "동림동_유일가든아파트",
      "facility_id": "458",
      "addr": "광주광역시 북구 북문대로249번길 55 (동림동, 유일가든아파트)",
      "lat": "35.18558077323173"
    },
    {
      "lot": "126.86427776962951",
      "instl_place_cd_nm": "주택단지",
      "zip": "61271",
      "pfct_nm": "동림동삼익아파트 101동옆놀이시설",
      "facility_id": "459",
      "addr": "광주광역시 북구 유림로 175 (동림동)",
      "lat": "35.1784785656921"
    },
    {
      "lot": "126.87046790783631",
      "instl_place_cd_nm": "주택단지",
      "zip": "61075",
      "pfct_nm": "연제동광명2차아파트",
      "facility_id": "460",
      "addr": "광주광역시 북구 효열로 13 (연제동, 광명아파트)",
      "lat": "35.20800243055722"
    },
    {
      "lot": "126.92586518933435",
      "instl_place_cd_nm": "주택단지",
      "zip": "61198",
      "pfct_nm": "두암동_현대2차아파트(놀이터1)",
      "facility_id": "461",
      "addr": "광주광역시 북구 동문대로86번길 55 (두암동, 현대2차아파트)",
      "lat": "35.171271485121565"
    },
    {
      "lot": "126.8942",
      "instl_place_cd_nm": "주택단지",
      "zip": "61253",
      "pfct_nm": "임동_한국아델리움1차아파트",
      "facility_id": "462",
      "addr": "광주광역시 북구 천변우로79번길 77 (임동, 한국아델리움)",
      "lat": "35.1658404"
    },
    {
      "lot": "126.8899783758376",
      "instl_place_cd_nm": "주택단지",
      "zip": "61113",
      "pfct_nm": "운암동_대주아파트(놀이터 1)",
      "facility_id": "463",
      "addr": "광주광역시 북구 금호로40번길 11 (운암동, 대주아파트)",
      "lat": "35.17393701173348"
    },
    {
      "lot": "126.8942",
      "instl_place_cd_nm": "주택단지",
      "zip": "61255",
      "pfct_nm": "임동_임동주공아파트(놀이터 3)",
      "facility_id": "464",
      "addr": "광주광역시 북구 천변우로 11 (임동, 주공아파트)",
      "lat": "35.1658404"
    },
    {
      "lot": "126.91844912989237",
      "instl_place_cd_nm": "주택단지",
      "zip": "61133",
      "pfct_nm": "문흥동_중흥파크맨션3차아파트(301동 앞)",
      "facility_id": "465",
      "addr": "광주광역시 북구 천지인로173번길 10 (문흥동, 중흥아파트)",
      "lat": "35.183198429721344"
    },
    {
      "lot": "126.93892159137005",
      "instl_place_cd_nm": "주택단지",
      "zip": "61154",
      "pfct_nm": "두암동현대1차아파트 놀이터(108동 앞)",
      "facility_id": "466",
      "addr": "광주광역시 북구 삼정로 108 (두암동)",
      "lat": "35.17264432876119"
    },
    {
      "lot": "126.89174599670459",
      "instl_place_cd_nm": "주택단지",
      "zip": "61061",
      "pfct_nm": "부림2차아파트놀이시설",
      "facility_id": "467",
      "addr": "광주광역시 북구 매곡로69번길 22 (매곡동, 매곡동 부림아파트)",
      "lat": "35.189289821533755"
    },
    {
      "lot": "126.93695109627463",
      "instl_place_cd_nm": "주택단지",
      "zip": "61154",
      "pfct_nm": "두암동라인동산아파트 102동앞놀이시설",
      "facility_id": "468",
      "addr": "광주광역시 북구 삼정로 112 (두암동, 라인동산아파트)",
      "lat": "35.17270528751316"
    },
    {
      "lot": "126.93593812699207",
      "instl_place_cd_nm": "주택단지",
      "zip": "61154",
      "pfct_nm": "두암동라인동산아파트 105동앞놀이시설",
      "facility_id": "469",
      "addr": "광주광역시 북구 삼정로 112 (두암동, 라인동산아파트)",
      "lat": "35.17308895969115"
    },
    {
      "lot": "126.87426748322837",
      "instl_place_cd_nm": "주택단지",
      "zip": "61083",
      "pfct_nm": "양산동_한국아파트",
      "facility_id": "470",
      "addr": "광주광역시 북구 양산제로 3 (양산동, 양산동 한국아파트)",
      "lat": "35.199263317373806"
    },
    {
      "lot": "126.8695835451348",
      "instl_place_cd_nm": "주택단지",
      "zip": "61075",
      "pfct_nm": "신용주공아파트 103동뒤놀이시설",
      "facility_id": "471",
      "addr": "광주광역시 북구 연양로7번길 58 (신용동, 신용주공아파트)",
      "lat": "35.20904704912634"
    },
    {
      "lot": "126.90271315397376",
      "instl_place_cd_nm": "주택단지",
      "zip": "61220",
      "pfct_nm": "신안동삼익아파트",
      "facility_id": "472",
      "addr": "광주광역시 북구 자미로 45 (신안동, 삼익아파트)",
      "lat": "35.169837719041105"
    },
    {
      "lot": "126.90047020786774",
      "instl_place_cd_nm": "주택단지",
      "zip": "61051",
      "pfct_nm": "삼각동_모아호반아파트",
      "facility_id": "473",
      "addr": "광주광역시 북구 설죽로370번길 27 (삼각동, 삼각동 모아,호반아파트)",
      "lat": "35.194202926974164"
    },
    {
      "lot": "126.88334403344787",
      "instl_place_cd_nm": "주택단지",
      "zip": "61026",
      "pfct_nm": "현진에버빌아파트 101동뒤놀이시설",
      "facility_id": "474",
      "addr": "광주광역시 북구 양산택지소로 20 (본촌동, 현진에버빌아파트)",
      "lat": "35.21409400906402"
    },
    {
      "lot": "126.88283392038655",
      "instl_place_cd_nm": "주택단지",
      "zip": "61026",
      "pfct_nm": "현진에버빌아파트 104동앞놀이시설",
      "facility_id": "475",
      "addr": "광주광역시 북구 양산택지소로 20 (본촌동, 현진에버빌아파트)",
      "lat": "35.212723462907455"
    },
    {
      "lot": "126.88413881861042",
      "instl_place_cd_nm": "주택단지",
      "zip": "61026",
      "pfct_nm": "현진에버빌아파트 109동앞놀이시설",
      "facility_id": "476",
      "addr": "광주광역시 북구 양산택지소로 20 (본촌동, 현진에버빌아파트)",
      "lat": "35.213204688110615"
    },
    {
      "lot": "126.87326683580761",
      "instl_place_cd_nm": "주택단지",
      "zip": "61102",
      "pfct_nm": "미라보2차아파트 101동앞놀이터",
      "facility_id": "477",
      "addr": "광주광역시 북구 북문대로150번길 11 (운암동)",
      "lat": "35.182472297193605"
    },
    {
      "lot": "126.87273655040822",
      "instl_place_cd_nm": "주택단지",
      "zip": "61102",
      "pfct_nm": "미라보2차아파트 102동앞놀이터",
      "facility_id": "478",
      "addr": "광주광역시 북구 북문대로150번길 11 (운암동)",
      "lat": "35.182832283379426"
    },
    {
      "lot": "126.89378883601435",
      "instl_place_cd_nm": "주택단지",
      "zip": "61060",
      "pfct_nm": "매곡동_대성베르힐아파트",
      "facility_id": "479",
      "addr": "광주광역시 북구 초당로7번길 19 (매곡동, 대성베르힐)",
      "lat": "35.19513916639615"
    },
    {
      "lot": "126.86671032204733",
      "instl_place_cd_nm": "주택단지",
      "zip": "61269",
      "pfct_nm": "동림동_삼라마이다스아파트",
      "facility_id": "480",
      "addr": "광주광역시 북구 동운로 141 (동림동)",
      "lat": "35.17373562542392"
    },
    {
      "lot": "126.89710870298025",
      "instl_place_cd_nm": "주택단지",
      "zip": "61038",
      "pfct_nm": "일곡동청솔1차아파트어린이놀이터",
      "facility_id": "481",
      "addr": "광주광역시 북구 일곡로 80 (일곡동, 일곡1차청솔아파트)",
      "lat": "35.20738578632015"
    },
    {
      "lot": "126.86897017812151",
      "instl_place_cd_nm": "주택단지",
      "zip": "61018",
      "pfct_nm": "신용동_용두주공아파트(114동뒤 놀이터)",
      "facility_id": "482",
      "addr": "광주광역시 북구 임방울대로1041번길 15 (신용동)",
      "lat": "35.214860101494345"
    },
    {
      "lot": "126.9171063151986",
      "instl_place_cd_nm": "주택단지",
      "zip": "61175",
      "pfct_nm": "문흥동우산주공2단지(101동놀이터)",
      "facility_id": "483",
      "addr": "광주광역시 북구 면앙로31번길 10 (문흥동)",
      "lat": "35.17978475854911"
    },
    {
      "lot": "126.91692467907254",
      "instl_place_cd_nm": "주택단지",
      "zip": "61175",
      "pfct_nm": "문흥동우산주공2단지아파트 108동앞놀이시설",
      "facility_id": "484",
      "addr": "광주광역시 북구 면앙로31번길 10 (문흥동)",
      "lat": "35.18161776734854"
    },
    {
      "lot": "126.86516658135453",
      "instl_place_cd_nm": "주택단지",
      "zip": "61096",
      "pfct_nm": "동림동푸른마을주공3단지(놀이터 6)",
      "facility_id": "485",
      "addr": "광주광역시 북구 북문대로242번길 11, 푸른마을주공3단지아파트 (동림동)",
      "lat": "35.1899382966033"
    },
    {
      "lot": "126.89467871849519",
      "instl_place_cd_nm": "주택단지",
      "zip": "61059",
      "pfct_nm": "매곡동호반1차아파트",
      "facility_id": "486",
      "addr": "광주광역시 북구 매곡로 60 (매곡동, 호반맨션)",
      "lat": "35.190523883235464"
    },
    {
      "lot": "126.91832628577667",
      "instl_place_cd_nm": "주택단지",
      "zip": "61175",
      "pfct_nm": "문흥동우성아파트 어린이놀이시설",
      "facility_id": "487",
      "addr": "광주광역시 북구 호동로 99 (문흥동, 우성아파트)",
      "lat": "35.18115902894147"
    },
    {
      "lot": "126.89324802087201",
      "instl_place_cd_nm": "주택단지",
      "zip": "61064",
      "pfct_nm": "용봉동_삼성아파트",
      "facility_id": "488",
      "addr": "광주광역시 북구 서하로 120 (용봉동, 삼성아파트)",
      "lat": "35.18676623429053"
    },
    {
      "lot": "126.9160432829791",
      "instl_place_cd_nm": "주택단지",
      "zip": "61124",
      "pfct_nm": "오치동_한국아델리움아파트(놀이터2)",
      "facility_id": "489",
      "addr": "광주광역시 북구 능안로29번길 30 (오치동, 한국아델리움)",
      "lat": "35.18997497818315"
    },
    {
      "lot": "126.86115772689011",
      "instl_place_cd_nm": "주택단지",
      "zip": "61271",
      "pfct_nm": "동림동삼익아파트 111동옆놀이시설",
      "facility_id": "490",
      "addr": "광주광역시 북구 유림로 175 (동림동)",
      "lat": "35.17737086831669"
    },
    {
      "lot": "126.88750851717103",
      "instl_place_cd_nm": "주택단지",
      "zip": "61253",
      "pfct_nm": "임동_한국아델리움2차아파트(놀이터 1)",
      "facility_id": "491",
      "addr": "광주광역시 북구 천변우로79번길 25 (임동, 한국아델리움 2차)",
      "lat": "35.16489750614057"
    },
    {
      "lot": "126.88801600787166",
      "instl_place_cd_nm": "주택단지",
      "zip": "61253",
      "pfct_nm": "임동_한국아델리움2차아파트(놀이터 2)",
      "facility_id": "492",
      "addr": "광주광역시 북구 천변우로79번길 25 (임동, 한국아델리움 2차)",
      "lat": "35.166020167322685"
    },
    {
      "lot": "126.92613881308284",
      "instl_place_cd_nm": "주택단지",
      "zip": "61128",
      "pfct_nm": "문흥동우미호반아파트 101동앞놀이터",
      "facility_id": "493",
      "addr": "광주광역시 북구 문산로62번길 20 (문흥동, 문흥동 우미,호반아파트)",
      "lat": "35.185817294770146"
    },
    {
      "lot": "126.89966969799582",
      "instl_place_cd_nm": "주택단지",
      "zip": "61032",
      "pfct_nm": "일곡동_벽산아파트(103동놀이터)",
      "facility_id": "494",
      "addr": "광주광역시 북구 우치로537번길 5 (일곡동, 벽산아파트)",
      "lat": "35.211957407814715"
    },
    {
      "lot": "126.90005057167593",
      "instl_place_cd_nm": "주택단지",
      "zip": "61032",
      "pfct_nm": "일곡동_벽산아파트(104동 놀이터)",
      "facility_id": "495",
      "addr": "광주광역시 북구 우치로537번길 5 (일곡동, 벽산아파트)",
      "lat": "35.21196836496745"
    },
    {
      "lot": "126.91548067088193",
      "instl_place_cd_nm": "주택단지",
      "zip": "61124",
      "pfct_nm": "오치동_한국아델리움아파트(놀이터1)",
      "facility_id": "496",
      "addr": "광주광역시 북구 능안로29번길 30 (오치동, 한국아델리움)",
      "lat": "35.18855269942942"
    },
    {
      "lot": "126.89113431786038",
      "instl_place_cd_nm": "주택단지",
      "zip": "61060",
      "pfct_nm": "매곡동_대주피오레아파트",
      "facility_id": "497",
      "addr": "광주광역시 북구 매곡로 93 (매곡동, 대주피오레 아파트)",
      "lat": "35.19271054025024"
    },
    {
      "lot": "126.86967150795999",
      "instl_place_cd_nm": "주택단지",
      "zip": "61903",
      "pfct_nm": "동천우미린아파트 502동앞놀이시설",
      "facility_id": "498",
      "addr": "광주광역시 서구 하남대로710번길 20(동천동, 우미린아파트)",
      "lat": "35.169443880886746"
    },
    {
      "lot": "126.87099464949756",
      "instl_place_cd_nm": "주택단지",
      "zip": "61904",
      "pfct_nm": "동천마을주공6단지아파트 601동앞놀이시설",
      "facility_id": "499",
      "addr": "광주광역시 서구 하남대로710번길 5(동천동, 광주동림2휴먼시아6단지)",
      "lat": "35.17091901642511"
    },
    {
      "lot": "126.87192934601688",
      "instl_place_cd_nm": "주택단지",
      "zip": "61904",
      "pfct_nm": "동천마을주공6단지아파트 602동앞놀이시설",
      "facility_id": "500",
      "addr": "광주광역시 서구 하남대로710번길 5(동천동, 광주동림2휴먼시아6단지)",
      "lat": "35.17075100373327"
    }
  ]
}
